{"type":"FeatureCollection","metadata":{"description":"Commute reachability hex grid (~3.8 km cells). pt = public transport minutes to the 8th district (VAO HAFAS, weekday 10:00, best of 5, door-to-door incl. walking from the cell centre); car = OSRM free-flow minutes to the 21st district.","pt_date":"20261008","pt_time":"100000","generated":"2026-10-08","cells":327,"pt_bands":[45,60,75,90],"car_bands":[20,30,40,55]},"features":[{"type":"Feature","properties":{"pt":84,"pt_band":90,"car":43,"car_band":55},"geometry":{"type":"Polygon","coordinates":[[[16.26281,48.12974],[16.23747,48.13949],[16.21213,48.12974],[16.21213,48.11026],[16.23747,48.10051],[16.26281,48.11026],[16.26281,48.12974]]]}},{"type":"Feature","properties":{"pt":47,"pt_band":60,"car":36,"car_band":40},"geometry":{"type":"Polygon","coordinates":[[[16.31427,48.12974],[16.28893,48.13949],[16.26359,48.12974],[16.26359,48.11026],[16.28893,48.10051],[16.31427,48.11026],[16.31427,48.12974]]]}},{"type":"Feature","properties":{"pt":52,"pt_band":60,"car":36,"car_band":40},"geometry":{"type":"Polygon","coordinates":[[[16.36573,48.12974],[16.34039,48.13949],[16.31505,48.12974],[16.31505,48.11026],[16.34039,48.10051],[16.36573,48.11026],[16.36573,48.12974]]]}},{"type":"Feature","properties":{"pt":50,"pt_band":60,"car":33,"car_band":40},"geometry":{"type":"Polygon","coordinates":[[[16.41718,48.12974],[16.39184,48.13949],[16.3665,48.12974],[16.3665,48.11026],[16.39184,48.10051],[16.41718,48.11026],[16.41718,48.12974]]]}},{"type":"Feature","properties":{"pt":null,"pt_band":null,"car":55,"car_band":55},"geometry":{"type":"Polygon","coordinates":[[[16.46864,48.12974],[16.4433,48.13949],[16.41796,48.12974],[16.41796,48.11026],[16.4433,48.10051],[16.46864,48.11026],[16.46864,48.12974]]]}},{"type":"Feature","properties":{"pt":86,"pt_band":90,"car":53,"car_band":55},"geometry":{"type":"Polygon","coordinates":[[[15.92835,48.15942],[15.90301,48.16917],[15.87767,48.15942],[15.87767,48.13994],[15.90301,48.13019],[15.92835,48.13994],[15.92835,48.15942]]]}},{"type":"Feature","properties":{"pt":89,"pt_band":90,"car":59,"car_band":null},"geometry":{"type":"Polygon","coordinates":[[[15.97981,48.15942],[15.95447,48.16917],[15.92913,48.15942],[15.92913,48.13994],[15.95447,48.13019],[15.97981,48.13994],[15.97981,48.15942]]]}},{"type":"Feature","properties":{"pt":null,"pt_band":null,"car":50,"car_band":55},"geometry":{"type":"Polygon","coordinates":[[[16.03126,48.15942],[16.00592,48.16917],[15.98058,48.15942],[15.98058,48.13994],[16.00592,48.13019],[16.03126,48.13994],[16.03126,48.15942]]]}},{"type":"Feature","properties":{"pt":85,"pt_band":90,"car":61,"car_band":null},"geometry":{"type":"Polygon","coordinates":[[[16.13417,48.15942],[16.10883,48.16917],[16.08349,48.15942],[16.08349,48.13994],[16.10883,48.13019],[16.13417,48.13994],[16.13417,48.15942]]]}},{"type":"Feature","properties":{"pt":83,"pt_band":90,"car":59,"car_band":null},"geometry":{"type":"Polygon","coordinates":[[[16.18563,48.15942],[16.16029,48.16917],[16.13495,48.15942],[16.13495,48.13994],[16.16029,48.13019],[16.18563,48.13994],[16.18563,48.15942]]]}},{"type":"Feature","properties":{"pt":null,"pt_band":null,"car":51,"car_band":55},"geometry":{"type":"Polygon","coordinates":[[[16.23709,48.15942],[16.21175,48.16917],[16.18641,48.15942],[16.18641,48.13994],[16.21175,48.13019],[16.23709,48.13994],[16.23709,48.15942]]]}},{"type":"Feature","properties":{"pt":58,"pt_band":60,"car":37,"car_band":40},"geometry":{"type":"Polygon","coordinates":[[[16.28854,48.15942],[16.2632,48.16917],[16.23786,48.15942],[16.23786,48.13994],[16.2632,48.13019],[16.28854,48.13994],[16.28854,48.15942]]]}},{"type":"Feature","properties":{"pt":35,"pt_band":45,"car":32,"car_band":40},"geometry":{"type":"Polygon","coordinates":[[[16.34,48.15942],[16.31466,48.16917],[16.28932,48.15942],[16.28932,48.13994],[16.31466,48.13019],[16.34,48.13994],[16.34,48.15942]]]}},{"type":"Feature","properties":{"pt":46,"pt_band":60,"car":31,"car_band":40},"geometry":{"type":"Polygon","coordinates":[[[16.39146,48.15942],[16.36612,48.16917],[16.34078,48.15942],[16.34078,48.13994],[16.36612,48.13019],[16.39146,48.13994],[16.39146,48.15942]]]}},{"type":"Feature","properties":{"pt":60,"pt_band":60,"car":32,"car_band":40},"geometry":{"type":"Polygon","coordinates":[[[16.44291,48.15942],[16.41757,48.16917],[16.39223,48.15942],[16.39223,48.13994],[16.41757,48.13019],[16.44291,48.13994],[16.44291,48.15942]]]}},{"type":"Feature","properties":{"pt":78,"pt_band":90,"car":67,"car_band":null},"geometry":{"type":"Polygon","coordinates":[[[15.64534,48.18909],[15.62,48.19884],[15.59466,48.18909],[15.59466,48.16961],[15.62,48.15986],[15.64534,48.16961],[15.64534,48.18909]]]}},{"type":"Feature","properties":{"pt":88,"pt_band":90,"car":54,"car_band":55},"geometry":{"type":"Polygon","coordinates":[[[15.90262,48.18909],[15.87728,48.19884],[15.85194,48.18909],[15.85194,48.16961],[15.87728,48.15986],[15.90262,48.16961],[15.90262,48.18909]]]}},{"type":"Feature","properties":{"pt":76,"pt_band":90,"car":56,"car_band":null},"geometry":{"type":"Polygon","coordinates":[[[16.00553,48.18909],[15.98019,48.19884],[15.95485,48.18909],[15.95485,48.16961],[15.98019,48.15986],[16.00553,48.16961],[16.00553,48.18909]]]}},{"type":"Feature","properties":{"pt":71,"pt_band":75,"car":46,"car_band":55},"geometry":{"type":"Polygon","coordinates":[[[16.05699,48.18909],[16.03165,48.19884],[16.00631,48.18909],[16.00631,48.16961],[16.03165,48.15986],[16.05699,48.16961],[16.05699,48.18909]]]}},{"type":"Feature","properties":{"pt":63,"pt_band":75,"car":47,"car_band":55},"geometry":{"type":"Polygon","coordinates":[[[16.10845,48.18909],[16.08311,48.19884],[16.05777,48.18909],[16.05777,48.16961],[16.08311,48.15986],[16.10845,48.16961],[16.10845,48.18909]]]}},{"type":"Feature","properties":{"pt":76,"pt_band":90,"car":37,"car_band":40},"geometry":{"type":"Polygon","coordinates":[[[16.21136,48.18909],[16.18602,48.19884],[16.16068,48.18909],[16.16068,48.16961],[16.18602,48.15986],[16.21136,48.16961],[16.21136,48.18909]]]}},{"type":"Feature","properties":{"pt":74,"pt_band":75,"car":37,"car_band":40},"geometry":{"type":"Polygon","coordinates":[[[16.26281,48.18909],[16.23747,48.19884],[16.21213,48.18909],[16.21213,48.16961],[16.23747,48.15986],[16.26281,48.16961],[16.26281,48.18909]]]}},{"type":"Feature","properties":{"pt":49,"pt_band":60,"car":33,"car_band":40},"geometry":{"type":"Polygon","coordinates":[[[16.31427,48.18909],[16.28893,48.19884],[16.26359,48.18909],[16.26359,48.16961],[16.28893,48.15986],[16.31427,48.16961],[16.31427,48.18909]]]}},{"type":"Feature","properties":{"pt":34,"pt_band":45,"car":27,"car_band":30},"geometry":{"type":"Polygon","coordinates":[[[16.36573,48.18909],[16.34039,48.19884],[16.31505,48.18909],[16.31505,48.16961],[16.34039,48.15986],[16.36573,48.16961],[16.36573,48.18909]]]}},{"type":"Feature","properties":{"pt":41,"pt_band":45,"car":25,"car_band":30},"geometry":{"type":"Polygon","coordinates":[[[16.41718,48.18909],[16.39184,48.19884],[16.3665,48.18909],[16.3665,48.16961],[16.39184,48.15986],[16.41718,48.16961],[16.41718,48.18909]]]}},{"type":"Feature","properties":{"pt":44,"pt_band":45,"car":28,"car_band":30},"geometry":{"type":"Polygon","coordinates":[[[16.46864,48.18909],[16.4433,48.19884],[16.41796,48.18909],[16.41796,48.16961],[16.4433,48.15986],[16.46864,48.16961],[16.46864,48.18909]]]}},{"type":"Feature","properties":{"pt":78,"pt_band":90,"car":64,"car_band":null},"geometry":{"type":"Polygon","coordinates":[[[15.67107,48.21877],[15.64573,48.22852],[15.62039,48.21877],[15.62039,48.19929],[15.64573,48.18954],[15.67107,48.19929],[15.67107,48.21877]]]}},{"type":"Feature","properties":{"pt":115,"pt_band":null,"car":52,"car_band":55},"geometry":{"type":"Polygon","coordinates":[[[15.87689,48.21877],[15.85155,48.22852],[15.82621,48.21877],[15.82621,48.19929],[15.85155,48.18954],[15.87689,48.19929],[15.87689,48.21877]]]}},{"type":"Feature","properties":{"pt":79,"pt_band":90,"car":51,"car_band":55},"geometry":{"type":"Polygon","coordinates":[[[15.92835,48.21877],[15.90301,48.22852],[15.87767,48.21877],[15.87767,48.19929],[15.90301,48.18954],[15.92835,48.19929],[15.92835,48.21877]]]}},{"type":"Feature","properties":{"pt":74,"pt_band":75,"car":54,"car_band":55},"geometry":{"type":"Polygon","coordinates":[[[15.97981,48.21877],[15.95447,48.22852],[15.92913,48.21877],[15.92913,48.19929],[15.95447,48.18954],[15.97981,48.19929],[15.97981,48.21877]]]}},{"type":"Feature","properties":{"pt":104,"pt_band":null,"car":53,"car_band":55},"geometry":{"type":"Polygon","coordinates":[[[16.03126,48.21877],[16.00592,48.22852],[15.98058,48.21877],[15.98058,48.19929],[16.00592,48.18954],[16.03126,48.19929],[16.03126,48.21877]]]}},{"type":"Feature","properties":{"pt":89,"pt_band":90,"car":50,"car_band":55},"geometry":{"type":"Polygon","coordinates":[[[16.08272,48.21877],[16.05738,48.22852],[16.03204,48.21877],[16.03204,48.19929],[16.05738,48.18954],[16.08272,48.19929],[16.08272,48.21877]]]}},{"type":"Feature","properties":{"pt":64,"pt_band":75,"car":55,"car_band":55},"geometry":{"type":"Polygon","coordinates":[[[16.18563,48.21877],[16.16029,48.22852],[16.13495,48.21877],[16.13495,48.19929],[16.16029,48.18954],[16.18563,48.19929],[16.18563,48.21877]]]}},{"type":"Feature","properties":{"pt":47,"pt_band":60,"car":37,"car_band":40},"geometry":{"type":"Polygon","coordinates":[[[16.23709,48.21877],[16.21175,48.22852],[16.18641,48.21877],[16.18641,48.19929],[16.21175,48.18954],[16.23709,48.19929],[16.23709,48.21877]]]}},{"type":"Feature","properties":{"pt":56,"pt_band":60,"car":33,"car_band":40},"geometry":{"type":"Polygon","coordinates":[[[16.28854,48.21877],[16.2632,48.22852],[16.23786,48.21877],[16.23786,48.19929],[16.2632,48.18954],[16.28854,48.19929],[16.28854,48.21877]]]}},{"type":"Feature","properties":{"pt":26,"pt_band":45,"car":24,"car_band":30},"geometry":{"type":"Polygon","coordinates":[[[16.34,48.21877],[16.31466,48.22852],[16.28932,48.21877],[16.28932,48.19929],[16.31466,48.18954],[16.34,48.19929],[16.34,48.21877]]]}},{"type":"Feature","properties":{"pt":20,"pt_band":45,"car":20,"car_band":20},"geometry":{"type":"Polygon","coordinates":[[[16.39146,48.21877],[16.36612,48.22852],[16.34078,48.21877],[16.34078,48.19929],[16.36612,48.18954],[16.39146,48.19929],[16.39146,48.21877]]]}},{"type":"Feature","properties":{"pt":25,"pt_band":45,"car":21,"car_band":30},"geometry":{"type":"Polygon","coordinates":[[[16.44291,48.21877],[16.41757,48.22852],[16.39223,48.21877],[16.39223,48.19929],[16.41757,48.18954],[16.44291,48.19929],[16.44291,48.21877]]]}},{"type":"Feature","properties":{"pt":77,"pt_band":90,"car":66,"car_band":null},"geometry":{"type":"Polygon","coordinates":[[[15.64534,48.24845],[15.62,48.2582],[15.59466,48.24845],[15.59466,48.22897],[15.62,48.21922],[15.64534,48.22897],[15.64534,48.24845]]]}},{"type":"Feature","properties":{"pt":82,"pt_band":90,"car":64,"car_band":null},"geometry":{"type":"Polygon","coordinates":[[[15.6968,48.24845],[15.67146,48.2582],[15.64612,48.24845],[15.64612,48.22897],[15.67146,48.21922],[15.6968,48.22897],[15.6968,48.24845]]]}},{"type":"Feature","properties":{"pt":106,"pt_band":null,"car":53,"car_band":55},"geometry":{"type":"Polygon","coordinates":[[[15.85116,48.24845],[15.82582,48.2582],[15.80048,48.24845],[15.80048,48.22897],[15.82582,48.21922],[15.85116,48.22897],[15.85116,48.24845]]]}},{"type":"Feature","properties":{"pt":null,"pt_band":null,"car":50,"car_band":55},"geometry":{"type":"Polygon","coordinates":[[[15.90262,48.24845],[15.87728,48.2582],[15.85194,48.24845],[15.85194,48.22897],[15.87728,48.21922],[15.90262,48.22897],[15.90262,48.24845]]]}},{"type":"Feature","properties":{"pt":84,"pt_band":90,"car":47,"car_band":55},"geometry":{"type":"Polygon","coordinates":[[[15.95408,48.24845],[15.92874,48.2582],[15.9034,48.24845],[15.9034,48.22897],[15.92874,48.21922],[15.95408,48.22897],[15.95408,48.24845]]]}},{"type":"Feature","properties":{"pt":100,"pt_band":null,"car":48,"car_band":55},"geometry":{"type":"Polygon","coordinates":[[[16.00553,48.24845],[15.98019,48.2582],[15.95485,48.24845],[15.95485,48.22897],[15.98019,48.21922],[16.00553,48.22897],[16.00553,48.24845]]]}},{"type":"Feature","properties":{"pt":108,"pt_band":null,"car":47,"car_band":55},"geometry":{"type":"Polygon","coordinates":[[[16.05699,48.24845],[16.03165,48.2582],[16.00631,48.24845],[16.00631,48.22897],[16.03165,48.21922],[16.05699,48.22897],[16.05699,48.24845]]]}},{"type":"Feature","properties":{"pt":62,"pt_band":75,"car":45,"car_band":55},"geometry":{"type":"Polygon","coordinates":[[[16.1599,48.24845],[16.13456,48.2582],[16.10922,48.24845],[16.10922,48.22897],[16.13456,48.21922],[16.1599,48.22897],[16.1599,48.24845]]]}},{"type":"Feature","properties":{"pt":58,"pt_band":60,"car":44,"car_band":55},"geometry":{"type":"Polygon","coordinates":[[[16.21136,48.24845],[16.18602,48.2582],[16.16068,48.24845],[16.16068,48.22897],[16.18602,48.21922],[16.21136,48.22897],[16.21136,48.24845]]]}},{"type":"Feature","properties":{"pt":null,"pt_band":null,"car":39,"car_band":40},"geometry":{"type":"Polygon","coordinates":[[[16.26281,48.24845],[16.23747,48.2582],[16.21213,48.24845],[16.21213,48.22897],[16.23747,48.21922],[16.26281,48.22897],[16.26281,48.24845]]]}},{"type":"Feature","properties":{"pt":44,"pt_band":45,"car":27,"car_band":30},"geometry":{"type":"Polygon","coordinates":[[[16.31427,48.24845],[16.28893,48.2582],[16.26359,48.24845],[16.26359,48.22897],[16.28893,48.21922],[16.31427,48.22897],[16.31427,48.24845]]]}},{"type":"Feature","properties":{"pt":32,"pt_band":45,"car":17,"car_band":20},"geometry":{"type":"Polygon","coordinates":[[[16.36573,48.24845],[16.34039,48.2582],[16.31505,48.24845],[16.31505,48.22897],[16.34039,48.21922],[16.36573,48.22897],[16.36573,48.24845]]]}},{"type":"Feature","properties":{"pt":34,"pt_band":45,"car":14,"car_band":20},"geometry":{"type":"Polygon","coordinates":[[[16.41718,48.24845],[16.39184,48.2582],[16.3665,48.24845],[16.3665,48.22897],[16.39184,48.21922],[16.41718,48.22897],[16.41718,48.24845]]]}},{"type":"Feature","properties":{"pt":36,"pt_band":45,"car":18,"car_band":20},"geometry":{"type":"Polygon","coordinates":[[[16.46864,48.24845],[16.4433,48.2582],[16.41796,48.24845],[16.41796,48.22897],[16.4433,48.21922],[16.46864,48.22897],[16.46864,48.24845]]]}},{"type":"Feature","properties":{"pt":80,"pt_band":90,"car":61,"car_band":null},"geometry":{"type":"Polygon","coordinates":[[[15.67107,48.27812],[15.64573,48.28787],[15.62039,48.27812],[15.62039,48.25864],[15.64573,48.24889],[15.67107,48.25864],[15.67107,48.27812]]]}},{"type":"Feature","properties":{"pt":88,"pt_band":90,"car":62,"car_band":null},"geometry":{"type":"Polygon","coordinates":[[[15.72252,48.27812],[15.69718,48.28787],[15.67184,48.27812],[15.67184,48.25864],[15.69718,48.24889],[15.72252,48.25864],[15.72252,48.27812]]]}},{"type":"Feature","properties":{"pt":85,"pt_band":90,"car":52,"car_band":55},"geometry":{"type":"Polygon","coordinates":[[[15.82544,48.27812],[15.8001,48.28787],[15.77476,48.27812],[15.77476,48.25864],[15.8001,48.24889],[15.82544,48.25864],[15.82544,48.27812]]]}},{"type":"Feature","properties":{"pt":95,"pt_band":null,"car":50,"car_band":55},"geometry":{"type":"Polygon","coordinates":[[[15.87689,48.27812],[15.85155,48.28787],[15.82621,48.27812],[15.82621,48.25864],[15.85155,48.24889],[15.87689,48.25864],[15.87689,48.27812]]]}},{"type":"Feature","properties":{"pt":null,"pt_band":null,"car":54,"car_band":55},"geometry":{"type":"Polygon","coordinates":[[[15.92835,48.27812],[15.90301,48.28787],[15.87767,48.27812],[15.87767,48.25864],[15.90301,48.24889],[15.92835,48.25864],[15.92835,48.27812]]]}},{"type":"Feature","properties":{"pt":81,"pt_band":90,"car":39,"car_band":40},"geometry":{"type":"Polygon","coordinates":[[[15.97981,48.27812],[15.95447,48.28787],[15.92913,48.27812],[15.92913,48.25864],[15.95447,48.24889],[15.97981,48.25864],[15.97981,48.27812]]]}},{"type":"Feature","properties":{"pt":70,"pt_band":75,"car":45,"car_band":55},"geometry":{"type":"Polygon","coordinates":[[[16.03126,48.27812],[16.00592,48.28787],[15.98058,48.27812],[15.98058,48.25864],[16.00592,48.24889],[16.03126,48.25864],[16.03126,48.27812]]]}},{"type":"Feature","properties":{"pt":90,"pt_band":90,"car":49,"car_band":55},"geometry":{"type":"Polygon","coordinates":[[[16.08272,48.27812],[16.05738,48.28787],[16.03204,48.27812],[16.03204,48.25864],[16.05738,48.24889],[16.08272,48.25864],[16.08272,48.27812]]]}},{"type":"Feature","properties":{"pt":95,"pt_band":null,"car":42,"car_band":55},"geometry":{"type":"Polygon","coordinates":[[[16.13417,48.27812],[16.10883,48.28787],[16.08349,48.27812],[16.08349,48.25864],[16.10883,48.24889],[16.13417,48.25864],[16.13417,48.27812]]]}},{"type":"Feature","properties":{"pt":83,"pt_band":90,"car":40,"car_band":40},"geometry":{"type":"Polygon","coordinates":[[[16.18563,48.27812],[16.16029,48.28787],[16.13495,48.27812],[16.13495,48.25864],[16.16029,48.24889],[16.18563,48.25864],[16.18563,48.27812]]]}},{"type":"Feature","properties":{"pt":58,"pt_band":60,"car":36,"car_band":40},"geometry":{"type":"Polygon","coordinates":[[[16.23709,48.27812],[16.21175,48.28787],[16.18641,48.27812],[16.18641,48.25864],[16.21175,48.24889],[16.23709,48.25864],[16.23709,48.27812]]]}},{"type":"Feature","properties":{"pt":51,"pt_band":60,"car":27,"car_band":30},"geometry":{"type":"Polygon","coordinates":[[[16.28854,48.27812],[16.2632,48.28787],[16.23786,48.27812],[16.23786,48.25864],[16.2632,48.24889],[16.28854,48.25864],[16.28854,48.27812]]]}},{"type":"Feature","properties":{"pt":54,"pt_band":60,"car":26,"car_band":30},"geometry":{"type":"Polygon","coordinates":[[[16.34,48.27812],[16.31466,48.28787],[16.28932,48.27812],[16.28932,48.25864],[16.31466,48.24889],[16.34,48.25864],[16.34,48.27812]]]}},{"type":"Feature","properties":{"pt":60,"pt_band":60,"car":17,"car_band":20},"geometry":{"type":"Polygon","coordinates":[[[16.39146,48.27812],[16.36612,48.28787],[16.34078,48.27812],[16.34078,48.25864],[16.36612,48.24889],[16.39146,48.25864],[16.39146,48.27812]]]}},{"type":"Feature","properties":{"pt":43,"pt_band":45,"car":10,"car_band":20},"geometry":{"type":"Polygon","coordinates":[[[16.44291,48.27812],[16.41757,48.28787],[16.39223,48.27812],[16.39223,48.25864],[16.41757,48.24889],[16.44291,48.25864],[16.44291,48.27812]]]}},{"type":"Feature","properties":{"pt":79,"pt_band":90,"car":61,"car_band":null},"geometry":{"type":"Polygon","coordinates":[[[15.6968,48.3078],[15.67146,48.31755],[15.64612,48.3078],[15.64612,48.28832],[15.67146,48.27857],[15.6968,48.28832],[15.6968,48.3078]]]}},{"type":"Feature","properties":{"pt":82,"pt_band":90,"car":68,"car_band":null},"geometry":{"type":"Polygon","coordinates":[[[15.74825,48.3078],[15.72291,48.31755],[15.69757,48.3078],[15.69757,48.28832],[15.72291,48.27857],[15.74825,48.28832],[15.74825,48.3078]]]}},{"type":"Feature","properties":{"pt":82,"pt_band":90,"car":53,"car_band":55},"geometry":{"type":"Polygon","coordinates":[[[15.79971,48.3078],[15.77437,48.31755],[15.74903,48.3078],[15.74903,48.28832],[15.77437,48.27857],[15.79971,48.28832],[15.79971,48.3078]]]}},{"type":"Feature","properties":{"pt":95,"pt_band":null,"car":49,"car_band":55},"geometry":{"type":"Polygon","coordinates":[[[15.85116,48.3078],[15.82582,48.31755],[15.80048,48.3078],[15.80048,48.28832],[15.82582,48.27857],[15.85116,48.28832],[15.85116,48.3078]]]}},{"type":"Feature","properties":{"pt":116,"pt_band":null,"car":49,"car_band":55},"geometry":{"type":"Polygon","coordinates":[[[15.90262,48.3078],[15.87728,48.31755],[15.85194,48.3078],[15.85194,48.28832],[15.87728,48.27857],[15.90262,48.28832],[15.90262,48.3078]]]}},{"type":"Feature","properties":{"pt":73,"pt_band":75,"car":42,"car_band":55},"geometry":{"type":"Polygon","coordinates":[[[15.95408,48.3078],[15.92874,48.31755],[15.9034,48.3078],[15.9034,48.28832],[15.92874,48.27857],[15.95408,48.28832],[15.95408,48.3078]]]}},{"type":"Feature","properties":{"pt":79,"pt_band":90,"car":37,"car_band":40},"geometry":{"type":"Polygon","coordinates":[[[16.00553,48.3078],[15.98019,48.31755],[15.95485,48.3078],[15.95485,48.28832],[15.98019,48.27857],[16.00553,48.28832],[16.00553,48.3078]]]}},{"type":"Feature","properties":{"pt":null,"pt_band":null,"car":50,"car_band":55},"geometry":{"type":"Polygon","coordinates":[[[16.05699,48.3078],[16.03165,48.31755],[16.00631,48.3078],[16.00631,48.28832],[16.03165,48.27857],[16.05699,48.28832],[16.05699,48.3078]]]}},{"type":"Feature","properties":{"pt":94,"pt_band":null,"car":34,"car_band":40},"geometry":{"type":"Polygon","coordinates":[[[16.10845,48.3078],[16.08311,48.31755],[16.05777,48.3078],[16.05777,48.28832],[16.08311,48.27857],[16.10845,48.28832],[16.10845,48.3078]]]}},{"type":"Feature","properties":{"pt":72,"pt_band":75,"car":37,"car_band":40},"geometry":{"type":"Polygon","coordinates":[[[16.1599,48.3078],[16.13456,48.31755],[16.10922,48.3078],[16.10922,48.28832],[16.13456,48.27857],[16.1599,48.28832],[16.1599,48.3078]]]}},{"type":"Feature","properties":{"pt":80,"pt_band":90,"car":40,"car_band":40},"geometry":{"type":"Polygon","coordinates":[[[16.21136,48.3078],[16.18602,48.31755],[16.16068,48.3078],[16.16068,48.28832],[16.18602,48.27857],[16.21136,48.28832],[16.21136,48.3078]]]}},{"type":"Feature","properties":{"pt":80,"pt_band":90,"car":42,"car_band":55},"geometry":{"type":"Polygon","coordinates":[[[16.26281,48.3078],[16.23747,48.31755],[16.21213,48.3078],[16.21213,48.28832],[16.23747,48.27857],[16.26281,48.28832],[16.26281,48.3078]]]}},{"type":"Feature","properties":{"pt":65,"pt_band":75,"car":48,"car_band":55},"geometry":{"type":"Polygon","coordinates":[[[16.31427,48.3078],[16.28893,48.31755],[16.26359,48.3078],[16.26359,48.28832],[16.28893,48.27857],[16.31427,48.28832],[16.31427,48.3078]]]}},{"type":"Feature","properties":{"pt":44,"pt_band":45,"car":22,"car_band":30},"geometry":{"type":"Polygon","coordinates":[[[16.36573,48.3078],[16.34039,48.31755],[16.31505,48.3078],[16.31505,48.28832],[16.34039,48.27857],[16.36573,48.28832],[16.36573,48.3078]]]}},{"type":"Feature","properties":{"pt":54,"pt_band":60,"car":3,"car_band":20},"geometry":{"type":"Polygon","coordinates":[[[16.41718,48.3078],[16.39184,48.31755],[16.3665,48.3078],[16.3665,48.28832],[16.39184,48.27857],[16.41718,48.28832],[16.41718,48.3078]]]}},{"type":"Feature","properties":{"pt":59,"pt_band":60,"car":11,"car_band":20},"geometry":{"type":"Polygon","coordinates":[[[16.46864,48.3078],[16.4433,48.31755],[16.41796,48.3078],[16.41796,48.28832],[16.4433,48.27857],[16.46864,48.28832],[16.46864,48.3078]]]}},{"type":"Feature","properties":{"pt":108,"pt_band":null,"car":54,"car_band":55},"geometry":{"type":"Polygon","coordinates":[[[15.72252,48.33747],[15.69718,48.34722],[15.67184,48.33747],[15.67184,48.31799],[15.69718,48.30824],[15.72252,48.31799],[15.72252,48.33747]]]}},{"type":"Feature","properties":{"pt":103,"pt_band":null,"car":52,"car_band":55},"geometry":{"type":"Polygon","coordinates":[[[15.82544,48.33747],[15.8001,48.34722],[15.77476,48.33747],[15.77476,48.31799],[15.8001,48.30824],[15.82544,48.31799],[15.82544,48.33747]]]}},{"type":"Feature","properties":{"pt":119,"pt_band":null,"car":47,"car_band":55},"geometry":{"type":"Polygon","coordinates":[[[15.87689,48.33747],[15.85155,48.34722],[15.82621,48.33747],[15.82621,48.31799],[15.85155,48.30824],[15.87689,48.31799],[15.87689,48.33747]]]}},{"type":"Feature","properties":{"pt":94,"pt_band":null,"car":43,"car_band":55},"geometry":{"type":"Polygon","coordinates":[[[15.92835,48.33747],[15.90301,48.34722],[15.87767,48.33747],[15.87767,48.31799],[15.90301,48.30824],[15.92835,48.31799],[15.92835,48.33747]]]}},{"type":"Feature","properties":{"pt":82,"pt_band":90,"car":36,"car_band":40},"geometry":{"type":"Polygon","coordinates":[[[15.97981,48.33747],[15.95447,48.34722],[15.92913,48.33747],[15.92913,48.31799],[15.95447,48.30824],[15.97981,48.31799],[15.97981,48.33747]]]}},{"type":"Feature","properties":{"pt":81,"pt_band":90,"car":33,"car_band":40},"geometry":{"type":"Polygon","coordinates":[[[16.03126,48.33747],[16.00592,48.34722],[15.98058,48.33747],[15.98058,48.31799],[16.00592,48.30824],[16.03126,48.31799],[16.03126,48.33747]]]}},{"type":"Feature","properties":{"pt":58,"pt_band":60,"car":30,"car_band":30},"geometry":{"type":"Polygon","coordinates":[[[16.08272,48.33747],[16.05738,48.34722],[16.03204,48.33747],[16.03204,48.31799],[16.05738,48.30824],[16.08272,48.31799],[16.08272,48.33747]]]}},{"type":"Feature","properties":{"pt":75,"pt_band":75,"car":35,"car_band":40},"geometry":{"type":"Polygon","coordinates":[[[16.13417,48.33747],[16.10883,48.34722],[16.08349,48.33747],[16.08349,48.31799],[16.10883,48.30824],[16.13417,48.31799],[16.13417,48.33747]]]}},{"type":"Feature","properties":{"pt":70,"pt_band":75,"car":57,"car_band":null},"geometry":{"type":"Polygon","coordinates":[[[16.18563,48.33747],[16.16029,48.34722],[16.13495,48.33747],[16.13495,48.31799],[16.16029,48.30824],[16.18563,48.31799],[16.18563,48.33747]]]}},{"type":"Feature","properties":{"pt":53,"pt_band":60,"car":38,"car_band":40},"geometry":{"type":"Polygon","coordinates":[[[16.23709,48.33747],[16.21175,48.34722],[16.18641,48.33747],[16.18641,48.31799],[16.21175,48.30824],[16.23709,48.31799],[16.23709,48.33747]]]}},{"type":"Feature","properties":{"pt":99,"pt_band":null,"car":30,"car_band":30},"geometry":{"type":"Polygon","coordinates":[[[16.28854,48.33747],[16.2632,48.34722],[16.23786,48.33747],[16.23786,48.31799],[16.2632,48.30824],[16.28854,48.31799],[16.28854,48.33747]]]}},{"type":"Feature","properties":{"pt":null,"pt_band":null,"car":28,"car_band":30},"geometry":{"type":"Polygon","coordinates":[[[16.34,48.33747],[16.31466,48.34722],[16.28932,48.33747],[16.28932,48.31799],[16.31466,48.30824],[16.34,48.31799],[16.34,48.33747]]]}},{"type":"Feature","properties":{"pt":62,"pt_band":75,"car":13,"car_band":20},"geometry":{"type":"Polygon","coordinates":[[[16.39146,48.33747],[16.36612,48.34722],[16.34078,48.33747],[16.34078,48.31799],[16.36612,48.30824],[16.39146,48.31799],[16.39146,48.33747]]]}},{"type":"Feature","properties":{"pt":66,"pt_band":75,"car":19,"car_band":20},"geometry":{"type":"Polygon","coordinates":[[[16.44291,48.33747],[16.41757,48.34722],[16.39223,48.33747],[16.39223,48.31799],[16.41757,48.30824],[16.44291,48.31799],[16.44291,48.33747]]]}},{"type":"Feature","properties":{"pt":116,"pt_band":null,"car":53,"car_band":55},"geometry":{"type":"Polygon","coordinates":[[[15.74825,48.36715],[15.72291,48.3769],[15.69757,48.36715],[15.69757,48.34767],[15.72291,48.33792],[15.74825,48.34767],[15.74825,48.36715]]]}},{"type":"Feature","properties":{"pt":120,"pt_band":null,"car":53,"car_band":55},"geometry":{"type":"Polygon","coordinates":[[[15.85116,48.36715],[15.82582,48.3769],[15.80048,48.36715],[15.80048,48.34767],[15.82582,48.33792],[15.85116,48.34767],[15.85116,48.36715]]]}},{"type":"Feature","properties":{"pt":null,"pt_band":null,"car":49,"car_band":55},"geometry":{"type":"Polygon","coordinates":[[[15.90262,48.36715],[15.87728,48.3769],[15.85194,48.36715],[15.85194,48.34767],[15.87728,48.33792],[15.90262,48.34767],[15.90262,48.36715]]]}},{"type":"Feature","properties":{"pt":null,"pt_band":null,"car":43,"car_band":55},"geometry":{"type":"Polygon","coordinates":[[[15.95408,48.36715],[15.92874,48.3769],[15.9034,48.36715],[15.9034,48.34767],[15.92874,48.33792],[15.95408,48.34767],[15.95408,48.36715]]]}},{"type":"Feature","properties":{"pt":97,"pt_band":null,"car":28,"car_band":30},"geometry":{"type":"Polygon","coordinates":[[[16.05699,48.36715],[16.03165,48.3769],[16.00631,48.36715],[16.00631,48.34767],[16.03165,48.33792],[16.05699,48.34767],[16.05699,48.36715]]]}},{"type":"Feature","properties":{"pt":null,"pt_band":null,"car":46,"car_band":55},"geometry":{"type":"Polygon","coordinates":[[[16.10845,48.36715],[16.08311,48.3769],[16.05777,48.36715],[16.05777,48.34767],[16.08311,48.33792],[16.10845,48.34767],[16.10845,48.36715]]]}},{"type":"Feature","properties":{"pt":null,"pt_band":null,"car":51,"car_band":55},"geometry":{"type":"Polygon","coordinates":[[[16.1599,48.36715],[16.13456,48.3769],[16.10922,48.36715],[16.10922,48.34767],[16.13456,48.33792],[16.1599,48.34767],[16.1599,48.36715]]]}},{"type":"Feature","properties":{"pt":null,"pt_band":null,"car":55,"car_band":55},"geometry":{"type":"Polygon","coordinates":[[[16.21136,48.36715],[16.18602,48.3769],[16.16068,48.36715],[16.16068,48.34767],[16.18602,48.33792],[16.21136,48.34767],[16.21136,48.36715]]]}},{"type":"Feature","properties":{"pt":null,"pt_band":null,"car":20,"car_band":20},"geometry":{"type":"Polygon","coordinates":[[[16.26281,48.36715],[16.23747,48.3769],[16.21213,48.36715],[16.21213,48.34767],[16.23747,48.33792],[16.26281,48.34767],[16.26281,48.36715]]]}},{"type":"Feature","properties":{"pt":null,"pt_band":null,"car":30,"car_band":30},"geometry":{"type":"Polygon","coordinates":[[[16.31427,48.36715],[16.28893,48.3769],[16.26359,48.36715],[16.26359,48.34767],[16.28893,48.33792],[16.31427,48.34767],[16.31427,48.36715]]]}},{"type":"Feature","properties":{"pt":64,"pt_band":75,"car":17,"car_band":20},"geometry":{"type":"Polygon","coordinates":[[[16.36573,48.36715],[16.34039,48.3769],[16.31505,48.36715],[16.31505,48.34767],[16.34039,48.33792],[16.36573,48.34767],[16.36573,48.36715]]]}},{"type":"Feature","properties":{"pt":77,"pt_band":90,"car":20,"car_band":20},"geometry":{"type":"Polygon","coordinates":[[[16.41718,48.36715],[16.39184,48.3769],[16.3665,48.36715],[16.3665,48.34767],[16.39184,48.33792],[16.41718,48.34767],[16.41718,48.36715]]]}},{"type":"Feature","properties":{"pt":84,"pt_band":90,"car":19,"car_band":20},"geometry":{"type":"Polygon","coordinates":[[[16.46864,48.36715],[16.4433,48.3769],[16.41796,48.36715],[16.41796,48.34767],[16.4433,48.33792],[16.46864,48.34767],[16.46864,48.36715]]]}},{"type":"Feature","properties":{"pt":88,"pt_band":90,"car":45,"car_band":55},"geometry":{"type":"Polygon","coordinates":[[[15.87689,48.39683],[15.85155,48.40658],[15.82621,48.39683],[15.82621,48.37735],[15.85155,48.3676],[15.87689,48.37735],[15.87689,48.39683]]]}},{"type":"Feature","properties":{"pt":94,"pt_band":null,"car":42,"car_band":55},"geometry":{"type":"Polygon","coordinates":[[[15.92835,48.39683],[15.90301,48.40658],[15.87767,48.39683],[15.87767,48.37735],[15.90301,48.3676],[15.92835,48.37735],[15.92835,48.39683]]]}},{"type":"Feature","properties":{"pt":109,"pt_band":null,"car":39,"car_band":40},"geometry":{"type":"Polygon","coordinates":[[[15.97981,48.39683],[15.95447,48.40658],[15.92913,48.39683],[15.92913,48.37735],[15.95447,48.3676],[15.97981,48.37735],[15.97981,48.39683]]]}},{"type":"Feature","properties":{"pt":null,"pt_band":null,"car":47,"car_band":55},"geometry":{"type":"Polygon","coordinates":[[[16.03126,48.39683],[16.00592,48.40658],[15.98058,48.39683],[15.98058,48.37735],[16.00592,48.3676],[16.03126,48.37735],[16.03126,48.39683]]]}},{"type":"Feature","properties":{"pt":89,"pt_band":90,"car":33,"car_band":40},"geometry":{"type":"Polygon","coordinates":[[[16.08272,48.39683],[16.05738,48.40658],[16.03204,48.39683],[16.03204,48.37735],[16.05738,48.3676],[16.08272,48.37735],[16.08272,48.39683]]]}},{"type":"Feature","properties":{"pt":84,"pt_band":90,"car":27,"car_band":30},"geometry":{"type":"Polygon","coordinates":[[[16.13417,48.39683],[16.10883,48.40658],[16.08349,48.39683],[16.08349,48.37735],[16.10883,48.3676],[16.13417,48.37735],[16.13417,48.39683]]]}},{"type":"Feature","properties":{"pt":80,"pt_band":90,"car":28,"car_band":30},"geometry":{"type":"Polygon","coordinates":[[[16.18563,48.39683],[16.16029,48.40658],[16.13495,48.39683],[16.13495,48.37735],[16.16029,48.3676],[16.18563,48.37735],[16.18563,48.39683]]]}},{"type":"Feature","properties":{"pt":57,"pt_band":60,"car":21,"car_band":30},"geometry":{"type":"Polygon","coordinates":[[[16.23709,48.39683],[16.21175,48.40658],[16.18641,48.39683],[16.18641,48.37735],[16.21175,48.3676],[16.23709,48.37735],[16.23709,48.39683]]]}},{"type":"Feature","properties":{"pt":82,"pt_band":90,"car":25,"car_band":30},"geometry":{"type":"Polygon","coordinates":[[[16.28854,48.39683],[16.2632,48.40658],[16.23786,48.39683],[16.23786,48.37735],[16.2632,48.3676],[16.28854,48.37735],[16.28854,48.39683]]]}},{"type":"Feature","properties":{"pt":77,"pt_band":90,"car":20,"car_band":20},"geometry":{"type":"Polygon","coordinates":[[[16.34,48.39683],[16.31466,48.40658],[16.28932,48.39683],[16.28932,48.37735],[16.31466,48.3676],[16.34,48.37735],[16.34,48.39683]]]}},{"type":"Feature","properties":{"pt":73,"pt_band":75,"car":22,"car_band":30},"geometry":{"type":"Polygon","coordinates":[[[16.39146,48.39683],[16.36612,48.40658],[16.34078,48.39683],[16.34078,48.37735],[16.36612,48.3676],[16.39146,48.37735],[16.39146,48.39683]]]}},{"type":"Feature","properties":{"pt":83,"pt_band":90,"car":19,"car_band":20},"geometry":{"type":"Polygon","coordinates":[[[16.44291,48.39683],[16.41757,48.40658],[16.39223,48.39683],[16.39223,48.37735],[16.41757,48.3676],[16.44291,48.37735],[16.44291,48.39683]]]}},{"type":"Feature","properties":{"pt":102,"pt_band":null,"car":45,"car_band":55},"geometry":{"type":"Polygon","coordinates":[[[15.79971,48.4265],[15.77437,48.43625],[15.74903,48.4265],[15.74903,48.40702],[15.77437,48.39727],[15.79971,48.40702],[15.79971,48.4265]]]}},{"type":"Feature","properties":{"pt":91,"pt_band":null,"car":49,"car_band":55},"geometry":{"type":"Polygon","coordinates":[[[15.85116,48.4265],[15.82582,48.43625],[15.80048,48.4265],[15.80048,48.40702],[15.82582,48.39727],[15.85116,48.40702],[15.85116,48.4265]]]}},{"type":"Feature","properties":{"pt":null,"pt_band":null,"car":48,"car_band":55},"geometry":{"type":"Polygon","coordinates":[[[15.90262,48.4265],[15.87728,48.43625],[15.85194,48.4265],[15.85194,48.40702],[15.87728,48.39727],[15.90262,48.40702],[15.90262,48.4265]]]}},{"type":"Feature","properties":{"pt":89,"pt_band":90,"car":44,"car_band":55},"geometry":{"type":"Polygon","coordinates":[[[15.95408,48.4265],[15.92874,48.43625],[15.9034,48.4265],[15.9034,48.40702],[15.92874,48.39727],[15.95408,48.40702],[15.95408,48.4265]]]}},{"type":"Feature","properties":{"pt":89,"pt_band":90,"car":36,"car_band":40},"geometry":{"type":"Polygon","coordinates":[[[16.00553,48.4265],[15.98019,48.43625],[15.95485,48.4265],[15.95485,48.40702],[15.98019,48.39727],[16.00553,48.40702],[16.00553,48.4265]]]}},{"type":"Feature","properties":{"pt":85,"pt_band":90,"car":42,"car_band":55},"geometry":{"type":"Polygon","coordinates":[[[16.05699,48.4265],[16.03165,48.43625],[16.00631,48.4265],[16.00631,48.40702],[16.03165,48.39727],[16.05699,48.40702],[16.05699,48.4265]]]}},{"type":"Feature","properties":{"pt":69,"pt_band":75,"car":28,"car_band":30},"geometry":{"type":"Polygon","coordinates":[[[16.10845,48.4265],[16.08311,48.43625],[16.05777,48.4265],[16.05777,48.40702],[16.08311,48.39727],[16.10845,48.40702],[16.10845,48.4265]]]}},{"type":"Feature","properties":{"pt":null,"pt_band":null,"car":37,"car_band":40},"geometry":{"type":"Polygon","coordinates":[[[16.1599,48.4265],[16.13456,48.43625],[16.10922,48.4265],[16.10922,48.40702],[16.13456,48.39727],[16.1599,48.40702],[16.1599,48.4265]]]}},{"type":"Feature","properties":{"pt":72,"pt_band":75,"car":29,"car_band":30},"geometry":{"type":"Polygon","coordinates":[[[16.21136,48.4265],[16.18602,48.43625],[16.16068,48.4265],[16.16068,48.40702],[16.18602,48.39727],[16.21136,48.40702],[16.21136,48.4265]]]}},{"type":"Feature","properties":{"pt":66,"pt_band":75,"car":26,"car_band":30},"geometry":{"type":"Polygon","coordinates":[[[16.26281,48.4265],[16.23747,48.43625],[16.21213,48.4265],[16.21213,48.40702],[16.23747,48.39727],[16.26281,48.40702],[16.26281,48.4265]]]}},{"type":"Feature","properties":{"pt":null,"pt_band":null,"car":26,"car_band":30},"geometry":{"type":"Polygon","coordinates":[[[16.31427,48.4265],[16.28893,48.43625],[16.26359,48.4265],[16.26359,48.40702],[16.28893,48.39727],[16.31427,48.40702],[16.31427,48.4265]]]}},{"type":"Feature","properties":{"pt":null,"pt_band":null,"car":25,"car_band":30},"geometry":{"type":"Polygon","coordinates":[[[16.36573,48.4265],[16.34039,48.43625],[16.31505,48.4265],[16.31505,48.40702],[16.34039,48.39727],[16.36573,48.40702],[16.36573,48.4265]]]}},{"type":"Feature","properties":{"pt":85,"pt_band":90,"car":30,"car_band":30},"geometry":{"type":"Polygon","coordinates":[[[16.41718,48.4265],[16.39184,48.43625],[16.3665,48.4265],[16.3665,48.40702],[16.39184,48.39727],[16.41718,48.40702],[16.41718,48.4265]]]}},{"type":"Feature","properties":{"pt":null,"pt_band":null,"car":29,"car_band":30},"geometry":{"type":"Polygon","coordinates":[[[16.46864,48.4265],[16.4433,48.43625],[16.41796,48.4265],[16.41796,48.40702],[16.4433,48.39727],[16.46864,48.40702],[16.46864,48.4265]]]}},{"type":"Feature","properties":{"pt":110,"pt_band":null,"car":51,"car_band":55},"geometry":{"type":"Polygon","coordinates":[[[15.77398,48.45618],[15.74864,48.46593],[15.7233,48.45618],[15.7233,48.4367],[15.74864,48.42695],[15.77398,48.4367],[15.77398,48.45618]]]}},{"type":"Feature","properties":{"pt":94,"pt_band":null,"car":45,"car_band":55},"geometry":{"type":"Polygon","coordinates":[[[15.82544,48.45618],[15.8001,48.46593],[15.77476,48.45618],[15.77476,48.4367],[15.8001,48.42695],[15.82544,48.4367],[15.82544,48.45618]]]}},{"type":"Feature","properties":{"pt":98,"pt_band":null,"car":54,"car_band":55},"geometry":{"type":"Polygon","coordinates":[[[15.87689,48.45618],[15.85155,48.46593],[15.82621,48.45618],[15.82621,48.4367],[15.85155,48.42695],[15.87689,48.4367],[15.87689,48.45618]]]}},{"type":"Feature","properties":{"pt":89,"pt_band":90,"car":44,"car_band":55},"geometry":{"type":"Polygon","coordinates":[[[15.92835,48.45618],[15.90301,48.46593],[15.87767,48.45618],[15.87767,48.4367],[15.90301,48.42695],[15.92835,48.4367],[15.92835,48.45618]]]}},{"type":"Feature","properties":{"pt":null,"pt_band":null,"car":45,"car_band":55},"geometry":{"type":"Polygon","coordinates":[[[15.97981,48.45618],[15.95447,48.46593],[15.92913,48.45618],[15.92913,48.4367],[15.95447,48.42695],[15.97981,48.4367],[15.97981,48.45618]]]}},{"type":"Feature","properties":{"pt":97,"pt_band":null,"car":43,"car_band":55},"geometry":{"type":"Polygon","coordinates":[[[16.03126,48.45618],[16.00592,48.46593],[15.98058,48.45618],[15.98058,48.4367],[16.00592,48.42695],[16.03126,48.4367],[16.03126,48.45618]]]}},{"type":"Feature","properties":{"pt":96,"pt_band":null,"car":39,"car_band":40},"geometry":{"type":"Polygon","coordinates":[[[16.08272,48.45618],[16.05738,48.46593],[16.03204,48.45618],[16.03204,48.4367],[16.05738,48.42695],[16.08272,48.4367],[16.08272,48.45618]]]}},{"type":"Feature","properties":{"pt":93,"pt_band":null,"car":35,"car_band":40},"geometry":{"type":"Polygon","coordinates":[[[16.13417,48.45618],[16.10883,48.46593],[16.08349,48.45618],[16.08349,48.4367],[16.10883,48.42695],[16.13417,48.4367],[16.13417,48.45618]]]}},{"type":"Feature","properties":{"pt":95,"pt_band":null,"car":34,"car_band":40},"geometry":{"type":"Polygon","coordinates":[[[16.18563,48.45618],[16.16029,48.46593],[16.13495,48.45618],[16.13495,48.4367],[16.16029,48.42695],[16.18563,48.4367],[16.18563,48.45618]]]}},{"type":"Feature","properties":{"pt":81,"pt_band":90,"car":28,"car_band":30},"geometry":{"type":"Polygon","coordinates":[[[16.23709,48.45618],[16.21175,48.46593],[16.18641,48.45618],[16.18641,48.4367],[16.21175,48.42695],[16.23709,48.4367],[16.23709,48.45618]]]}},{"type":"Feature","properties":{"pt":90,"pt_band":90,"car":37,"car_band":40},"geometry":{"type":"Polygon","coordinates":[[[16.28854,48.45618],[16.2632,48.46593],[16.23786,48.45618],[16.23786,48.4367],[16.2632,48.42695],[16.28854,48.4367],[16.28854,48.45618]]]}},{"type":"Feature","properties":{"pt":86,"pt_band":90,"car":33,"car_band":40},"geometry":{"type":"Polygon","coordinates":[[[16.34,48.45618],[16.31466,48.46593],[16.28932,48.45618],[16.28932,48.4367],[16.31466,48.42695],[16.34,48.4367],[16.34,48.45618]]]}},{"type":"Feature","properties":{"pt":null,"pt_band":null,"car":35,"car_band":40},"geometry":{"type":"Polygon","coordinates":[[[16.39146,48.45618],[16.36612,48.46593],[16.34078,48.45618],[16.34078,48.4367],[16.36612,48.42695],[16.39146,48.4367],[16.39146,48.45618]]]}},{"type":"Feature","properties":{"pt":93,"pt_band":null,"car":31,"car_band":40},"geometry":{"type":"Polygon","coordinates":[[[16.44291,48.45618],[16.41757,48.46593],[16.39223,48.45618],[16.39223,48.4367],[16.41757,48.42695],[16.44291,48.4367],[16.44291,48.45618]]]}},{"type":"Feature","properties":{"pt":117,"pt_band":null,"car":55,"car_band":55},"geometry":{"type":"Polygon","coordinates":[[[15.74825,48.48586],[15.72291,48.49561],[15.69757,48.48586],[15.69757,48.46638],[15.72291,48.45663],[15.74825,48.46638],[15.74825,48.48586]]]}},{"type":"Feature","properties":{"pt":92,"pt_band":null,"car":48,"car_band":55},"geometry":{"type":"Polygon","coordinates":[[[15.90262,48.48586],[15.87728,48.49561],[15.85194,48.48586],[15.85194,48.46638],[15.87728,48.45663],[15.90262,48.46638],[15.90262,48.48586]]]}},{"type":"Feature","properties":{"pt":null,"pt_band":null,"car":44,"car_band":55},"geometry":{"type":"Polygon","coordinates":[[[15.95408,48.48586],[15.92874,48.49561],[15.9034,48.48586],[15.9034,48.46638],[15.92874,48.45663],[15.95408,48.46638],[15.95408,48.48586]]]}},{"type":"Feature","properties":{"pt":79,"pt_band":90,"car":36,"car_band":40},"geometry":{"type":"Polygon","coordinates":[[[16.00553,48.48586],[15.98019,48.49561],[15.95485,48.48586],[15.95485,48.46638],[15.98019,48.45663],[16.00553,48.46638],[16.00553,48.48586]]]}},{"type":"Feature","properties":{"pt":102,"pt_band":null,"car":40,"car_band":40},"geometry":{"type":"Polygon","coordinates":[[[16.05699,48.48586],[16.03165,48.49561],[16.00631,48.48586],[16.00631,48.46638],[16.03165,48.45663],[16.05699,48.46638],[16.05699,48.48586]]]}},{"type":"Feature","properties":{"pt":131,"pt_band":null,"car":38,"car_band":40},"geometry":{"type":"Polygon","coordinates":[[[16.10845,48.48586],[16.08311,48.49561],[16.05777,48.48586],[16.05777,48.46638],[16.08311,48.45663],[16.10845,48.46638],[16.10845,48.48586]]]}},{"type":"Feature","properties":{"pt":92,"pt_band":null,"car":32,"car_band":40},"geometry":{"type":"Polygon","coordinates":[[[16.1599,48.48586],[16.13456,48.49561],[16.10922,48.48586],[16.10922,48.46638],[16.13456,48.45663],[16.1599,48.46638],[16.1599,48.48586]]]}},{"type":"Feature","properties":{"pt":null,"pt_band":null,"car":47,"car_band":55},"geometry":{"type":"Polygon","coordinates":[[[16.21136,48.48586],[16.18602,48.49561],[16.16068,48.48586],[16.16068,48.46638],[16.18602,48.45663],[16.21136,48.46638],[16.21136,48.48586]]]}},{"type":"Feature","properties":{"pt":81,"pt_band":90,"car":34,"car_band":40},"geometry":{"type":"Polygon","coordinates":[[[16.26281,48.48586],[16.23747,48.49561],[16.21213,48.48586],[16.21213,48.46638],[16.23747,48.45663],[16.26281,48.46638],[16.26281,48.48586]]]}},{"type":"Feature","properties":{"pt":83,"pt_band":90,"car":35,"car_band":40},"geometry":{"type":"Polygon","coordinates":[[[16.31427,48.48586],[16.28893,48.49561],[16.26359,48.48586],[16.26359,48.46638],[16.28893,48.45663],[16.31427,48.46638],[16.31427,48.48586]]]}},{"type":"Feature","properties":{"pt":null,"pt_band":null,"car":37,"car_band":40},"geometry":{"type":"Polygon","coordinates":[[[16.36573,48.48586],[16.34039,48.49561],[16.31505,48.48586],[16.31505,48.46638],[16.34039,48.45663],[16.36573,48.46638],[16.36573,48.48586]]]}},{"type":"Feature","properties":{"pt":94,"pt_band":null,"car":31,"car_band":40},"geometry":{"type":"Polygon","coordinates":[[[16.41718,48.48586],[16.39184,48.49561],[16.3665,48.48586],[16.3665,48.46638],[16.39184,48.45663],[16.41718,48.46638],[16.41718,48.48586]]]}},{"type":"Feature","properties":{"pt":96,"pt_band":null,"car":38,"car_band":40},"geometry":{"type":"Polygon","coordinates":[[[16.46864,48.48586],[16.4433,48.49561],[16.41796,48.48586],[16.41796,48.46638],[16.4433,48.45663],[16.46864,48.46638],[16.46864,48.48586]]]}},{"type":"Feature","properties":{"pt":null,"pt_band":null,"car":52,"car_band":55},"geometry":{"type":"Polygon","coordinates":[[[16.5201,48.12974],[16.49476,48.13949],[16.46942,48.12974],[16.46942,48.11026],[16.49476,48.10051],[16.5201,48.11026],[16.5201,48.12974]]]}},{"type":"Feature","properties":{"pt":null,"pt_band":null,"car":33,"car_band":40},"geometry":{"type":"Polygon","coordinates":[[[16.57155,48.12974],[16.54621,48.13949],[16.52087,48.12974],[16.52087,48.11026],[16.54621,48.10051],[16.57155,48.11026],[16.57155,48.12974]]]}},{"type":"Feature","properties":{"pt":78,"pt_band":90,"car":34,"car_band":40},"geometry":{"type":"Polygon","coordinates":[[[16.62301,48.12974],[16.59767,48.13949],[16.57233,48.12974],[16.57233,48.11026],[16.59767,48.10051],[16.62301,48.11026],[16.62301,48.12974]]]}},{"type":"Feature","properties":{"pt":null,"pt_band":null,"car":48,"car_band":55},"geometry":{"type":"Polygon","coordinates":[[[16.67446,48.12974],[16.64912,48.13949],[16.62378,48.12974],[16.62378,48.11026],[16.64912,48.10051],[16.67446,48.11026],[16.67446,48.12974]]]}},{"type":"Feature","properties":{"pt":null,"pt_band":null,"car":40,"car_band":40},"geometry":{"type":"Polygon","coordinates":[[[16.72592,48.12974],[16.70058,48.13949],[16.67524,48.12974],[16.67524,48.11026],[16.70058,48.10051],[16.72592,48.11026],[16.72592,48.12974]]]}},{"type":"Feature","properties":{"pt":null,"pt_band":null,"car":49,"car_band":55},"geometry":{"type":"Polygon","coordinates":[[[16.77738,48.12974],[16.75204,48.13949],[16.7267,48.12974],[16.7267,48.11026],[16.75204,48.10051],[16.77738,48.11026],[16.77738,48.12974]]]}},{"type":"Feature","properties":{"pt":null,"pt_band":null,"car":47,"car_band":55},"geometry":{"type":"Polygon","coordinates":[[[16.82883,48.12974],[16.80349,48.13949],[16.77815,48.12974],[16.77815,48.11026],[16.80349,48.10051],[16.82883,48.11026],[16.82883,48.12974]]]}},{"type":"Feature","properties":{"pt":134,"pt_band":null,"car":55,"car_band":55},"geometry":{"type":"Polygon","coordinates":[[[16.88029,48.12974],[16.85495,48.13949],[16.82961,48.12974],[16.82961,48.11026],[16.85495,48.10051],[16.88029,48.11026],[16.88029,48.12974]]]}},{"type":"Feature","properties":{"pt":51,"pt_band":60,"car":30,"car_band":30},"geometry":{"type":"Polygon","coordinates":[[[16.49437,48.15942],[16.46903,48.16917],[16.44369,48.15942],[16.44369,48.13994],[16.46903,48.13019],[16.49437,48.13994],[16.49437,48.15942]]]}},{"type":"Feature","properties":{"pt":75,"pt_band":75,"car":31,"car_band":40},"geometry":{"type":"Polygon","coordinates":[[[16.54582,48.15942],[16.52048,48.16917],[16.49514,48.15942],[16.49514,48.13994],[16.52048,48.13019],[16.54582,48.13994],[16.54582,48.15942]]]}},{"type":"Feature","properties":{"pt":85,"pt_band":90,"car":42,"car_band":55},"geometry":{"type":"Polygon","coordinates":[[[16.64874,48.15942],[16.6234,48.16917],[16.59806,48.15942],[16.59806,48.13994],[16.6234,48.13019],[16.64874,48.13994],[16.64874,48.15942]]]}},{"type":"Feature","properties":{"pt":74,"pt_band":75,"car":45,"car_band":55},"geometry":{"type":"Polygon","coordinates":[[[16.70019,48.15942],[16.67485,48.16917],[16.64951,48.15942],[16.64951,48.13994],[16.67485,48.13019],[16.70019,48.13994],[16.70019,48.15942]]]}},{"type":"Feature","properties":{"pt":null,"pt_band":null,"car":48,"car_band":55},"geometry":{"type":"Polygon","coordinates":[[[16.75165,48.15942],[16.72631,48.16917],[16.70097,48.15942],[16.70097,48.13994],[16.72631,48.13019],[16.75165,48.13994],[16.75165,48.15942]]]}},{"type":"Feature","properties":{"pt":103,"pt_band":null,"car":46,"car_band":55},"geometry":{"type":"Polygon","coordinates":[[[16.80311,48.15942],[16.77777,48.16917],[16.75243,48.15942],[16.75243,48.13994],[16.77777,48.13019],[16.80311,48.13994],[16.80311,48.15942]]]}},{"type":"Feature","properties":{"pt":106,"pt_band":null,"car":51,"car_band":55},"geometry":{"type":"Polygon","coordinates":[[[16.85456,48.15942],[16.82922,48.16917],[16.80388,48.15942],[16.80388,48.13994],[16.82922,48.13019],[16.85456,48.13994],[16.85456,48.15942]]]}},{"type":"Feature","properties":{"pt":95,"pt_band":null,"car":55,"car_band":55},"geometry":{"type":"Polygon","coordinates":[[[16.90602,48.15942],[16.88068,48.16917],[16.85534,48.15942],[16.85534,48.13994],[16.88068,48.13019],[16.90602,48.13994],[16.90602,48.15942]]]}},{"type":"Feature","properties":{"pt":48,"pt_band":60,"car":24,"car_band":30},"geometry":{"type":"Polygon","coordinates":[[[16.5201,48.18909],[16.49476,48.19884],[16.46942,48.18909],[16.46942,48.16961],[16.49476,48.15986],[16.5201,48.16961],[16.5201,48.18909]]]}},{"type":"Feature","properties":{"pt":78,"pt_band":90,"car":38,"car_band":40},"geometry":{"type":"Polygon","coordinates":[[[16.57155,48.18909],[16.54621,48.19884],[16.52087,48.18909],[16.52087,48.16961],[16.54621,48.15986],[16.57155,48.16961],[16.57155,48.18909]]]}},{"type":"Feature","properties":{"pt":59,"pt_band":60,"car":38,"car_band":40},"geometry":{"type":"Polygon","coordinates":[[[16.62301,48.18909],[16.59767,48.19884],[16.57233,48.18909],[16.57233,48.16961],[16.59767,48.15986],[16.62301,48.16961],[16.62301,48.18909]]]}},{"type":"Feature","properties":{"pt":87,"pt_band":90,"car":52,"car_band":55},"geometry":{"type":"Polygon","coordinates":[[[16.67446,48.18909],[16.64912,48.19884],[16.62378,48.18909],[16.62378,48.16961],[16.64912,48.15986],[16.67446,48.16961],[16.67446,48.18909]]]}},{"type":"Feature","properties":{"pt":null,"pt_band":null,"car":41,"car_band":55},"geometry":{"type":"Polygon","coordinates":[[[16.72592,48.18909],[16.70058,48.19884],[16.67524,48.18909],[16.67524,48.16961],[16.70058,48.15986],[16.72592,48.16961],[16.72592,48.18909]]]}},{"type":"Feature","properties":{"pt":null,"pt_band":null,"car":49,"car_band":55},"geometry":{"type":"Polygon","coordinates":[[[16.77738,48.18909],[16.75204,48.19884],[16.7267,48.18909],[16.7267,48.16961],[16.75204,48.15986],[16.77738,48.16961],[16.77738,48.18909]]]}},{"type":"Feature","properties":{"pt":null,"pt_band":null,"car":55,"car_band":55},"geometry":{"type":"Polygon","coordinates":[[[16.82883,48.18909],[16.80349,48.19884],[16.77815,48.18909],[16.77815,48.16961],[16.80349,48.15986],[16.82883,48.16961],[16.82883,48.18909]]]}},{"type":"Feature","properties":{"pt":98,"pt_band":null,"car":50,"car_band":55},"geometry":{"type":"Polygon","coordinates":[[[16.88029,48.18909],[16.85495,48.19884],[16.82961,48.18909],[16.82961,48.16961],[16.85495,48.15986],[16.88029,48.16961],[16.88029,48.18909]]]}},{"type":"Feature","properties":{"pt":39,"pt_band":45,"car":24,"car_band":30},"geometry":{"type":"Polygon","coordinates":[[[16.49437,48.21877],[16.46903,48.22852],[16.44369,48.21877],[16.44369,48.19929],[16.46903,48.18954],[16.49437,48.19929],[16.49437,48.21877]]]}},{"type":"Feature","properties":{"pt":50,"pt_band":60,"car":29,"car_band":30},"geometry":{"type":"Polygon","coordinates":[[[16.54582,48.21877],[16.52048,48.22852],[16.49514,48.21877],[16.49514,48.19929],[16.52048,48.18954],[16.54582,48.19929],[16.54582,48.21877]]]}},{"type":"Feature","properties":{"pt":80,"pt_band":90,"car":33,"car_band":40},"geometry":{"type":"Polygon","coordinates":[[[16.59728,48.21877],[16.57194,48.22852],[16.5466,48.21877],[16.5466,48.19929],[16.57194,48.18954],[16.59728,48.19929],[16.59728,48.21877]]]}},{"type":"Feature","properties":{"pt":66,"pt_band":75,"car":35,"car_band":40},"geometry":{"type":"Polygon","coordinates":[[[16.64874,48.21877],[16.6234,48.22852],[16.59806,48.21877],[16.59806,48.19929],[16.6234,48.18954],[16.64874,48.19929],[16.64874,48.21877]]]}},{"type":"Feature","properties":{"pt":null,"pt_band":null,"car":37,"car_band":40},"geometry":{"type":"Polygon","coordinates":[[[16.70019,48.21877],[16.67485,48.22852],[16.64951,48.21877],[16.64951,48.19929],[16.67485,48.18954],[16.70019,48.19929],[16.70019,48.21877]]]}},{"type":"Feature","properties":{"pt":null,"pt_band":null,"car":51,"car_band":55},"geometry":{"type":"Polygon","coordinates":[[[16.85456,48.21877],[16.82922,48.22852],[16.80388,48.21877],[16.80388,48.19929],[16.82922,48.18954],[16.85456,48.19929],[16.85456,48.21877]]]}},{"type":"Feature","properties":{"pt":41,"pt_band":45,"car":22,"car_band":30},"geometry":{"type":"Polygon","coordinates":[[[16.5201,48.24845],[16.49476,48.2582],[16.46942,48.24845],[16.46942,48.22897],[16.49476,48.21922],[16.5201,48.22897],[16.5201,48.24845]]]}},{"type":"Feature","properties":{"pt":62,"pt_band":75,"car":27,"car_band":30},"geometry":{"type":"Polygon","coordinates":[[[16.57155,48.24845],[16.54621,48.2582],[16.52087,48.24845],[16.52087,48.22897],[16.54621,48.21922],[16.57155,48.22897],[16.57155,48.24845]]]}},{"type":"Feature","properties":{"pt":64,"pt_band":75,"car":34,"car_band":40},"geometry":{"type":"Polygon","coordinates":[[[16.62301,48.24845],[16.59767,48.2582],[16.57233,48.24845],[16.57233,48.22897],[16.59767,48.21922],[16.62301,48.22897],[16.62301,48.24845]]]}},{"type":"Feature","properties":{"pt":60,"pt_band":60,"car":35,"car_band":40},"geometry":{"type":"Polygon","coordinates":[[[16.67446,48.24845],[16.64912,48.2582],[16.62378,48.24845],[16.62378,48.22897],[16.64912,48.21922],[16.67446,48.22897],[16.67446,48.24845]]]}},{"type":"Feature","properties":{"pt":54,"pt_band":60,"car":38,"car_band":40},"geometry":{"type":"Polygon","coordinates":[[[16.72592,48.24845],[16.70058,48.2582],[16.67524,48.24845],[16.67524,48.22897],[16.70058,48.21922],[16.72592,48.22897],[16.72592,48.24845]]]}},{"type":"Feature","properties":{"pt":73,"pt_band":75,"car":47,"car_band":55},"geometry":{"type":"Polygon","coordinates":[[[16.77738,48.24845],[16.75204,48.2582],[16.7267,48.24845],[16.7267,48.22897],[16.75204,48.21922],[16.77738,48.22897],[16.77738,48.24845]]]}},{"type":"Feature","properties":{"pt":88,"pt_band":90,"car":59,"car_band":null},"geometry":{"type":"Polygon","coordinates":[[[16.82883,48.24845],[16.80349,48.2582],[16.77815,48.24845],[16.77815,48.22897],[16.80349,48.21922],[16.82883,48.22897],[16.82883,48.24845]]]}},{"type":"Feature","properties":{"pt":97,"pt_band":null,"car":54,"car_band":55},"geometry":{"type":"Polygon","coordinates":[[[16.93175,48.24845],[16.90641,48.2582],[16.88107,48.24845],[16.88107,48.22897],[16.90641,48.21922],[16.93175,48.22897],[16.93175,48.24845]]]}},{"type":"Feature","properties":{"pt":50,"pt_band":60,"car":16,"car_band":20},"geometry":{"type":"Polygon","coordinates":[[[16.49437,48.27812],[16.46903,48.28787],[16.44369,48.27812],[16.44369,48.25864],[16.46903,48.24889],[16.49437,48.25864],[16.49437,48.27812]]]}},{"type":"Feature","properties":{"pt":73,"pt_band":75,"car":36,"car_band":40},"geometry":{"type":"Polygon","coordinates":[[[16.54582,48.27812],[16.52048,48.28787],[16.49514,48.27812],[16.49514,48.25864],[16.52048,48.24889],[16.54582,48.25864],[16.54582,48.27812]]]}},{"type":"Feature","properties":{"pt":null,"pt_band":null,"car":31,"car_band":40},"geometry":{"type":"Polygon","coordinates":[[[16.59728,48.27812],[16.57194,48.28787],[16.5466,48.27812],[16.5466,48.25864],[16.57194,48.24889],[16.59728,48.25864],[16.59728,48.27812]]]}},{"type":"Feature","properties":{"pt":68,"pt_band":75,"car":29,"car_band":30},"geometry":{"type":"Polygon","coordinates":[[[16.64874,48.27812],[16.6234,48.28787],[16.59806,48.27812],[16.59806,48.25864],[16.6234,48.24889],[16.64874,48.25864],[16.64874,48.27812]]]}},{"type":"Feature","properties":{"pt":null,"pt_band":null,"car":44,"car_band":55},"geometry":{"type":"Polygon","coordinates":[[[16.70019,48.27812],[16.67485,48.28787],[16.64951,48.27812],[16.64951,48.25864],[16.67485,48.24889],[16.70019,48.25864],[16.70019,48.27812]]]}},{"type":"Feature","properties":{"pt":null,"pt_band":null,"car":43,"car_band":55},"geometry":{"type":"Polygon","coordinates":[[[16.75165,48.27812],[16.72631,48.28787],[16.70097,48.27812],[16.70097,48.25864],[16.72631,48.24889],[16.75165,48.25864],[16.75165,48.27812]]]}},{"type":"Feature","properties":{"pt":null,"pt_band":null,"car":55,"car_band":55},"geometry":{"type":"Polygon","coordinates":[[[16.80311,48.27812],[16.77777,48.28787],[16.75243,48.27812],[16.75243,48.25864],[16.77777,48.24889],[16.80311,48.25864],[16.80311,48.27812]]]}},{"type":"Feature","properties":{"pt":null,"pt_band":null,"car":45,"car_band":55},"geometry":{"type":"Polygon","coordinates":[[[16.85456,48.27812],[16.82922,48.28787],[16.80388,48.27812],[16.80388,48.25864],[16.82922,48.24889],[16.85456,48.25864],[16.85456,48.27812]]]}},{"type":"Feature","properties":{"pt":85,"pt_band":90,"car":56,"car_band":null},"geometry":{"type":"Polygon","coordinates":[[[16.90602,48.27812],[16.88068,48.28787],[16.85534,48.27812],[16.85534,48.25864],[16.88068,48.24889],[16.90602,48.25864],[16.90602,48.27812]]]}},{"type":"Feature","properties":{"pt":59,"pt_band":60,"car":17,"car_band":20},"geometry":{"type":"Polygon","coordinates":[[[16.5201,48.3078],[16.49476,48.31755],[16.46942,48.3078],[16.46942,48.28832],[16.49476,48.27857],[16.5201,48.28832],[16.5201,48.3078]]]}},{"type":"Feature","properties":{"pt":null,"pt_band":null,"car":25,"car_band":30},"geometry":{"type":"Polygon","coordinates":[[[16.57155,48.3078],[16.54621,48.31755],[16.52087,48.3078],[16.52087,48.28832],[16.54621,48.27857],[16.57155,48.28832],[16.57155,48.3078]]]}},{"type":"Feature","properties":{"pt":73,"pt_band":75,"car":40,"car_band":40},"geometry":{"type":"Polygon","coordinates":[[[16.62301,48.3078],[16.59767,48.31755],[16.57233,48.3078],[16.57233,48.28832],[16.59767,48.27857],[16.62301,48.28832],[16.62301,48.3078]]]}},{"type":"Feature","properties":{"pt":null,"pt_band":null,"car":43,"car_band":55},"geometry":{"type":"Polygon","coordinates":[[[16.67446,48.3078],[16.64912,48.31755],[16.62378,48.3078],[16.62378,48.28832],[16.64912,48.27857],[16.67446,48.28832],[16.67446,48.3078]]]}},{"type":"Feature","properties":{"pt":96,"pt_band":null,"car":55,"car_band":55},"geometry":{"type":"Polygon","coordinates":[[[16.72592,48.3078],[16.70058,48.31755],[16.67524,48.3078],[16.67524,48.28832],[16.70058,48.27857],[16.72592,48.28832],[16.72592,48.3078]]]}},{"type":"Feature","properties":{"pt":80,"pt_band":90,"car":18,"car_band":20},"geometry":{"type":"Polygon","coordinates":[[[16.49437,48.33747],[16.46903,48.34722],[16.44369,48.33747],[16.44369,48.31799],[16.46903,48.30824],[16.49437,48.31799],[16.49437,48.33747]]]}},{"type":"Feature","properties":{"pt":null,"pt_band":null,"car":23,"car_band":30},"geometry":{"type":"Polygon","coordinates":[[[16.54582,48.33747],[16.52048,48.34722],[16.49514,48.33747],[16.49514,48.31799],[16.52048,48.30824],[16.54582,48.31799],[16.54582,48.33747]]]}},{"type":"Feature","properties":{"pt":null,"pt_band":null,"car":44,"car_band":55},"geometry":{"type":"Polygon","coordinates":[[[16.64874,48.33747],[16.6234,48.34722],[16.59806,48.33747],[16.59806,48.31799],[16.6234,48.30824],[16.64874,48.31799],[16.64874,48.33747]]]}},{"type":"Feature","properties":{"pt":64,"pt_band":75,"car":36,"car_band":40},"geometry":{"type":"Polygon","coordinates":[[[16.70019,48.33747],[16.67485,48.34722],[16.64951,48.33747],[16.64951,48.31799],[16.67485,48.30824],[16.70019,48.31799],[16.70019,48.33747]]]}},{"type":"Feature","properties":{"pt":83,"pt_band":90,"car":45,"car_band":55},"geometry":{"type":"Polygon","coordinates":[[[16.75165,48.33747],[16.72631,48.34722],[16.70097,48.33747],[16.70097,48.31799],[16.72631,48.30824],[16.75165,48.31799],[16.75165,48.33747]]]}},{"type":"Feature","properties":{"pt":71,"pt_band":75,"car":18,"car_band":20},"geometry":{"type":"Polygon","coordinates":[[[16.5201,48.36715],[16.49476,48.3769],[16.46942,48.36715],[16.46942,48.34767],[16.49476,48.33792],[16.5201,48.34767],[16.5201,48.36715]]]}},{"type":"Feature","properties":{"pt":79,"pt_band":90,"car":23,"car_band":30},"geometry":{"type":"Polygon","coordinates":[[[16.57155,48.36715],[16.54621,48.3769],[16.52087,48.36715],[16.52087,48.34767],[16.54621,48.33792],[16.57155,48.34767],[16.57155,48.36715]]]}},{"type":"Feature","properties":{"pt":73,"pt_band":75,"car":29,"car_band":30},"geometry":{"type":"Polygon","coordinates":[[[16.62301,48.36715],[16.59767,48.3769],[16.57233,48.36715],[16.57233,48.34767],[16.59767,48.33792],[16.62301,48.34767],[16.62301,48.36715]]]}},{"type":"Feature","properties":{"pt":null,"pt_band":null,"car":39,"car_band":40},"geometry":{"type":"Polygon","coordinates":[[[16.67446,48.36715],[16.64912,48.3769],[16.62378,48.36715],[16.62378,48.34767],[16.64912,48.33792],[16.67446,48.34767],[16.67446,48.36715]]]}},{"type":"Feature","properties":{"pt":88,"pt_band":90,"car":44,"car_band":55},"geometry":{"type":"Polygon","coordinates":[[[16.72592,48.36715],[16.70058,48.3769],[16.67524,48.36715],[16.67524,48.34767],[16.70058,48.33792],[16.72592,48.34767],[16.72592,48.36715]]]}},{"type":"Feature","properties":{"pt":74,"pt_band":75,"car":44,"car_band":55},"geometry":{"type":"Polygon","coordinates":[[[16.77738,48.36715],[16.75204,48.3769],[16.7267,48.36715],[16.7267,48.34767],[16.75204,48.33792],[16.77738,48.34767],[16.77738,48.36715]]]}},{"type":"Feature","properties":{"pt":82,"pt_band":90,"car":56,"car_band":null},"geometry":{"type":"Polygon","coordinates":[[[16.82883,48.36715],[16.80349,48.3769],[16.77815,48.36715],[16.77815,48.34767],[16.80349,48.33792],[16.82883,48.34767],[16.82883,48.36715]]]}},{"type":"Feature","properties":{"pt":74,"pt_band":75,"car":22,"car_band":30},"geometry":{"type":"Polygon","coordinates":[[[16.49437,48.39683],[16.46903,48.40658],[16.44369,48.39683],[16.44369,48.37735],[16.46903,48.3676],[16.49437,48.37735],[16.49437,48.39683]]]}},{"type":"Feature","properties":{"pt":67,"pt_band":75,"car":22,"car_band":30},"geometry":{"type":"Polygon","coordinates":[[[16.54582,48.39683],[16.52048,48.40658],[16.49514,48.39683],[16.49514,48.37735],[16.52048,48.3676],[16.54582,48.37735],[16.54582,48.39683]]]}},{"type":"Feature","properties":{"pt":92,"pt_band":null,"car":36,"car_band":40},"geometry":{"type":"Polygon","coordinates":[[[16.64874,48.39683],[16.6234,48.40658],[16.59806,48.39683],[16.59806,48.37735],[16.6234,48.3676],[16.64874,48.37735],[16.64874,48.39683]]]}},{"type":"Feature","properties":{"pt":103,"pt_band":null,"car":40,"car_band":40},"geometry":{"type":"Polygon","coordinates":[[[16.70019,48.39683],[16.67485,48.40658],[16.64951,48.39683],[16.64951,48.37735],[16.67485,48.3676],[16.70019,48.37735],[16.70019,48.39683]]]}},{"type":"Feature","properties":{"pt":87,"pt_band":90,"car":40,"car_band":40},"geometry":{"type":"Polygon","coordinates":[[[16.75165,48.39683],[16.72631,48.40658],[16.70097,48.39683],[16.70097,48.37735],[16.72631,48.3676],[16.75165,48.37735],[16.75165,48.39683]]]}},{"type":"Feature","properties":{"pt":111,"pt_band":null,"car":55,"car_band":55},"geometry":{"type":"Polygon","coordinates":[[[16.80311,48.39683],[16.77777,48.40658],[16.75243,48.39683],[16.75243,48.37735],[16.77777,48.3676],[16.80311,48.37735],[16.80311,48.39683]]]}},{"type":"Feature","properties":{"pt":80,"pt_band":90,"car":53,"car_band":55},"geometry":{"type":"Polygon","coordinates":[[[16.85456,48.39683],[16.82922,48.40658],[16.80388,48.39683],[16.80388,48.37735],[16.82922,48.3676],[16.85456,48.37735],[16.85456,48.39683]]]}},{"type":"Feature","properties":{"pt":null,"pt_band":null,"car":55,"car_band":55},"geometry":{"type":"Polygon","coordinates":[[[16.90602,48.39683],[16.88068,48.40658],[16.85534,48.39683],[16.85534,48.37735],[16.88068,48.3676],[16.90602,48.37735],[16.90602,48.39683]]]}},{"type":"Feature","properties":{"pt":72,"pt_band":75,"car":24,"car_band":30},"geometry":{"type":"Polygon","coordinates":[[[16.5201,48.4265],[16.49476,48.43625],[16.46942,48.4265],[16.46942,48.40702],[16.49476,48.39727],[16.5201,48.40702],[16.5201,48.4265]]]}},{"type":"Feature","properties":{"pt":null,"pt_band":null,"car":27,"car_band":30},"geometry":{"type":"Polygon","coordinates":[[[16.57155,48.4265],[16.54621,48.43625],[16.52087,48.4265],[16.52087,48.40702],[16.54621,48.39727],[16.57155,48.40702],[16.57155,48.4265]]]}},{"type":"Feature","properties":{"pt":null,"pt_band":null,"car":49,"car_band":55},"geometry":{"type":"Polygon","coordinates":[[[16.62301,48.4265],[16.59767,48.43625],[16.57233,48.4265],[16.57233,48.40702],[16.59767,48.39727],[16.62301,48.40702],[16.62301,48.4265]]]}},{"type":"Feature","properties":{"pt":101,"pt_band":null,"car":43,"car_band":55},"geometry":{"type":"Polygon","coordinates":[[[16.67446,48.4265],[16.64912,48.43625],[16.62378,48.4265],[16.62378,48.40702],[16.64912,48.39727],[16.67446,48.40702],[16.67446,48.4265]]]}},{"type":"Feature","properties":{"pt":null,"pt_band":null,"car":41,"car_band":55},"geometry":{"type":"Polygon","coordinates":[[[16.72592,48.4265],[16.70058,48.43625],[16.67524,48.4265],[16.67524,48.40702],[16.70058,48.39727],[16.72592,48.40702],[16.72592,48.4265]]]}},{"type":"Feature","properties":{"pt":86,"pt_band":90,"car":58,"car_band":null},"geometry":{"type":"Polygon","coordinates":[[[16.88029,48.4265],[16.85495,48.43625],[16.82961,48.4265],[16.82961,48.40702],[16.85495,48.39727],[16.88029,48.40702],[16.88029,48.4265]]]}},{"type":"Feature","properties":{"pt":83,"pt_band":90,"car":31,"car_band":40},"geometry":{"type":"Polygon","coordinates":[[[16.49437,48.45618],[16.46903,48.46593],[16.44369,48.45618],[16.44369,48.4367],[16.46903,48.42695],[16.49437,48.4367],[16.49437,48.45618]]]}},{"type":"Feature","properties":{"pt":86,"pt_band":90,"car":26,"car_band":30},"geometry":{"type":"Polygon","coordinates":[[[16.54582,48.45618],[16.52048,48.46593],[16.49514,48.45618],[16.49514,48.4367],[16.52048,48.42695],[16.54582,48.4367],[16.54582,48.45618]]]}},{"type":"Feature","properties":{"pt":null,"pt_band":null,"car":28,"car_band":30},"geometry":{"type":"Polygon","coordinates":[[[16.59728,48.45618],[16.57194,48.46593],[16.5466,48.45618],[16.5466,48.4367],[16.57194,48.42695],[16.59728,48.4367],[16.59728,48.45618]]]}},{"type":"Feature","properties":{"pt":null,"pt_band":null,"car":35,"car_band":40},"geometry":{"type":"Polygon","coordinates":[[[16.64874,48.45618],[16.6234,48.46593],[16.59806,48.45618],[16.59806,48.4367],[16.6234,48.42695],[16.64874,48.4367],[16.64874,48.45618]]]}},{"type":"Feature","properties":{"pt":null,"pt_band":null,"car":36,"car_band":40},"geometry":{"type":"Polygon","coordinates":[[[16.70019,48.45618],[16.67485,48.46593],[16.64951,48.45618],[16.64951,48.4367],[16.67485,48.42695],[16.70019,48.4367],[16.70019,48.45618]]]}},{"type":"Feature","properties":{"pt":111,"pt_band":null,"car":43,"car_band":55},"geometry":{"type":"Polygon","coordinates":[[[16.75165,48.45618],[16.72631,48.46593],[16.70097,48.45618],[16.70097,48.4367],[16.72631,48.42695],[16.75165,48.4367],[16.75165,48.45618]]]}},{"type":"Feature","properties":{"pt":107,"pt_band":null,"car":48,"car_band":55},"geometry":{"type":"Polygon","coordinates":[[[16.80311,48.45618],[16.77777,48.46593],[16.75243,48.45618],[16.75243,48.4367],[16.77777,48.42695],[16.80311,48.4367],[16.80311,48.45618]]]}},{"type":"Feature","properties":{"pt":93,"pt_band":null,"car":41,"car_band":55},"geometry":{"type":"Polygon","coordinates":[[[16.5201,48.48586],[16.49476,48.49561],[16.46942,48.48586],[16.46942,48.46638],[16.49476,48.45663],[16.5201,48.46638],[16.5201,48.48586]]]}},{"type":"Feature","properties":{"pt":null,"pt_band":null,"car":36,"car_band":40},"geometry":{"type":"Polygon","coordinates":[[[16.57155,48.48586],[16.54621,48.49561],[16.52087,48.48586],[16.52087,48.46638],[16.54621,48.45663],[16.57155,48.46638],[16.57155,48.48586]]]}},{"type":"Feature","properties":{"pt":86,"pt_band":90,"car":31,"car_band":40},"geometry":{"type":"Polygon","coordinates":[[[16.62301,48.48586],[16.59767,48.49561],[16.57233,48.48586],[16.57233,48.46638],[16.59767,48.45663],[16.62301,48.46638],[16.62301,48.48586]]]}},{"type":"Feature","properties":{"pt":97,"pt_band":null,"car":43,"car_band":55},"geometry":{"type":"Polygon","coordinates":[[[16.67446,48.48586],[16.64912,48.49561],[16.62378,48.48586],[16.62378,48.46638],[16.64912,48.45663],[16.67446,48.46638],[16.67446,48.48586]]]}},{"type":"Feature","properties":{"pt":123,"pt_band":null,"car":46,"car_band":55},"geometry":{"type":"Polygon","coordinates":[[[16.72592,48.48586],[16.70058,48.49561],[16.67524,48.48586],[16.67524,48.46638],[16.70058,48.45663],[16.72592,48.46638],[16.72592,48.48586]]]}},{"type":"Feature","properties":{"pt":120,"pt_band":null,"car":53,"car_band":55},"geometry":{"type":"Polygon","coordinates":[[[16.77738,48.48586],[16.75204,48.49561],[16.7267,48.48586],[16.7267,48.46638],[16.75204,48.45663],[16.77738,48.46638],[16.77738,48.48586]]]}},{"type":"Feature","properties":{"pt":null,"pt_band":null,"car":54,"car_band":55},"geometry":{"type":"Polygon","coordinates":[[[16.82883,48.48586],[16.80349,48.49561],[16.77815,48.48586],[16.77815,48.46638],[16.80349,48.45663],[16.82883,48.46638],[16.82883,48.48586]]]}},{"type":"Feature","properties":{"pt":104,"pt_band":null,"car":46,"car_band":55},"geometry":{"type":"Polygon","coordinates":[[[15.92835,48.51553],[15.90301,48.52528],[15.87767,48.51553],[15.87767,48.49605],[15.90301,48.4863],[15.92835,48.49605],[15.92835,48.51553]]]}},{"type":"Feature","properties":{"pt":98,"pt_band":null,"car":40,"car_band":40},"geometry":{"type":"Polygon","coordinates":[[[15.97981,48.51553],[15.95447,48.52528],[15.92913,48.51553],[15.92913,48.49605],[15.95447,48.4863],[15.97981,48.49605],[15.97981,48.51553]]]}},{"type":"Feature","properties":{"pt":96,"pt_band":null,"car":45,"car_band":55},"geometry":{"type":"Polygon","coordinates":[[[16.03126,48.51553],[16.00592,48.52528],[15.98058,48.51553],[15.98058,48.49605],[16.00592,48.4863],[16.03126,48.49605],[16.03126,48.51553]]]}},{"type":"Feature","properties":{"pt":88,"pt_band":90,"car":38,"car_band":40},"geometry":{"type":"Polygon","coordinates":[[[16.08272,48.51553],[16.05738,48.52528],[16.03204,48.51553],[16.03204,48.49605],[16.05738,48.4863],[16.08272,48.49605],[16.08272,48.51553]]]}},{"type":"Feature","properties":{"pt":92,"pt_band":null,"car":35,"car_band":40},"geometry":{"type":"Polygon","coordinates":[[[16.13417,48.51553],[16.10883,48.52528],[16.08349,48.51553],[16.08349,48.49605],[16.10883,48.4863],[16.13417,48.49605],[16.13417,48.51553]]]}},{"type":"Feature","properties":{"pt":100,"pt_band":null,"car":44,"car_band":55},"geometry":{"type":"Polygon","coordinates":[[[16.18563,48.51553],[16.16029,48.52528],[16.13495,48.51553],[16.13495,48.49605],[16.16029,48.4863],[16.18563,48.49605],[16.18563,48.51553]]]}},{"type":"Feature","properties":{"pt":103,"pt_band":null,"car":39,"car_band":40},"geometry":{"type":"Polygon","coordinates":[[[16.23709,48.51553],[16.21175,48.52528],[16.18641,48.51553],[16.18641,48.49605],[16.21175,48.4863],[16.23709,48.49605],[16.23709,48.51553]]]}},{"type":"Feature","properties":{"pt":105,"pt_band":null,"car":41,"car_band":55},"geometry":{"type":"Polygon","coordinates":[[[16.28854,48.51553],[16.2632,48.52528],[16.23786,48.51553],[16.23786,48.49605],[16.2632,48.4863],[16.28854,48.49605],[16.28854,48.51553]]]}},{"type":"Feature","properties":{"pt":103,"pt_band":null,"car":40,"car_band":40},"geometry":{"type":"Polygon","coordinates":[[[16.34,48.51553],[16.31466,48.52528],[16.28932,48.51553],[16.28932,48.49605],[16.31466,48.4863],[16.34,48.49605],[16.34,48.51553]]]}},{"type":"Feature","properties":{"pt":null,"pt_band":null,"car":35,"car_band":40},"geometry":{"type":"Polygon","coordinates":[[[16.39146,48.51553],[16.36612,48.52528],[16.34078,48.51553],[16.34078,48.49605],[16.36612,48.4863],[16.39146,48.49605],[16.39146,48.51553]]]}},{"type":"Feature","properties":{"pt":95,"pt_band":null,"car":38,"car_band":40},"geometry":{"type":"Polygon","coordinates":[[[16.44291,48.51553],[16.41757,48.52528],[16.39223,48.51553],[16.39223,48.49605],[16.41757,48.4863],[16.44291,48.49605],[16.44291,48.51553]]]}},{"type":"Feature","properties":{"pt":null,"pt_band":null,"car":49,"car_band":55},"geometry":{"type":"Polygon","coordinates":[[[16.49437,48.51553],[16.46903,48.52528],[16.44369,48.51553],[16.44369,48.49605],[16.46903,48.4863],[16.49437,48.49605],[16.49437,48.51553]]]}},{"type":"Feature","properties":{"pt":109,"pt_band":null,"car":41,"car_band":55},"geometry":{"type":"Polygon","coordinates":[[[16.54582,48.51553],[16.52048,48.52528],[16.49514,48.51553],[16.49514,48.49605],[16.52048,48.4863],[16.54582,48.49605],[16.54582,48.51553]]]}},{"type":"Feature","properties":{"pt":104,"pt_band":null,"car":31,"car_band":40},"geometry":{"type":"Polygon","coordinates":[[[16.59728,48.51553],[16.57194,48.52528],[16.5466,48.51553],[16.5466,48.49605],[16.57194,48.4863],[16.59728,48.49605],[16.59728,48.51553]]]}},{"type":"Feature","properties":{"pt":96,"pt_band":null,"car":35,"car_band":40},"geometry":{"type":"Polygon","coordinates":[[[16.64874,48.51553],[16.6234,48.52528],[16.59806,48.51553],[16.59806,48.49605],[16.6234,48.4863],[16.64874,48.49605],[16.64874,48.51553]]]}},{"type":"Feature","properties":{"pt":97,"pt_band":null,"car":36,"car_band":40},"geometry":{"type":"Polygon","coordinates":[[[16.70019,48.51553],[16.67485,48.52528],[16.64951,48.51553],[16.64951,48.49605],[16.67485,48.4863],[16.70019,48.49605],[16.70019,48.51553]]]}},{"type":"Feature","properties":{"pt":111,"pt_band":null,"car":43,"car_band":55},"geometry":{"type":"Polygon","coordinates":[[[16.75165,48.51553],[16.72631,48.52528],[16.70097,48.51553],[16.70097,48.49605],[16.72631,48.4863],[16.75165,48.49605],[16.75165,48.51553]]]}},{"type":"Feature","properties":{"pt":94,"pt_band":null,"car":45,"car_band":55},"geometry":{"type":"Polygon","coordinates":[[[15.95408,48.54521],[15.92874,48.55496],[15.9034,48.54521],[15.9034,48.52573],[15.92874,48.51598],[15.95408,48.52573],[15.95408,48.54521]]]}},{"type":"Feature","properties":{"pt":97,"pt_band":null,"car":47,"car_band":55},"geometry":{"type":"Polygon","coordinates":[[[16.00553,48.54521],[15.98019,48.55496],[15.95485,48.54521],[15.95485,48.52573],[15.98019,48.51598],[16.00553,48.52573],[16.00553,48.54521]]]}},{"type":"Feature","properties":{"pt":91,"pt_band":null,"car":40,"car_band":40},"geometry":{"type":"Polygon","coordinates":[[[16.05699,48.54521],[16.03165,48.55496],[16.00631,48.54521],[16.00631,48.52573],[16.03165,48.51598],[16.05699,48.52573],[16.05699,48.54521]]]}},{"type":"Feature","properties":{"pt":null,"pt_band":null,"car":43,"car_band":55},"geometry":{"type":"Polygon","coordinates":[[[16.10845,48.54521],[16.08311,48.55496],[16.05777,48.54521],[16.05777,48.52573],[16.08311,48.51598],[16.10845,48.52573],[16.10845,48.54521]]]}},{"type":"Feature","properties":{"pt":null,"pt_band":null,"car":43,"car_band":55},"geometry":{"type":"Polygon","coordinates":[[[16.1599,48.54521],[16.13456,48.55496],[16.10922,48.54521],[16.10922,48.52573],[16.13456,48.51598],[16.1599,48.52573],[16.1599,48.54521]]]}},{"type":"Feature","properties":{"pt":null,"pt_band":null,"car":47,"car_band":55},"geometry":{"type":"Polygon","coordinates":[[[16.21136,48.54521],[16.18602,48.55496],[16.16068,48.54521],[16.16068,48.52573],[16.18602,48.51598],[16.21136,48.52573],[16.21136,48.54521]]]}},{"type":"Feature","properties":{"pt":null,"pt_band":null,"car":50,"car_band":55},"geometry":{"type":"Polygon","coordinates":[[[16.26281,48.54521],[16.23747,48.55496],[16.21213,48.54521],[16.21213,48.52573],[16.23747,48.51598],[16.26281,48.52573],[16.26281,48.54521]]]}},{"type":"Feature","properties":{"pt":124,"pt_band":null,"car":48,"car_band":55},"geometry":{"type":"Polygon","coordinates":[[[16.31427,48.54521],[16.28893,48.55496],[16.26359,48.54521],[16.26359,48.52573],[16.28893,48.51598],[16.31427,48.52573],[16.31427,48.54521]]]}},{"type":"Feature","properties":{"pt":117,"pt_band":null,"car":42,"car_band":55},"geometry":{"type":"Polygon","coordinates":[[[16.36573,48.54521],[16.34039,48.55496],[16.31505,48.54521],[16.31505,48.52573],[16.34039,48.51598],[16.36573,48.52573],[16.36573,48.54521]]]}},{"type":"Feature","properties":{"pt":107,"pt_band":null,"car":41,"car_band":55},"geometry":{"type":"Polygon","coordinates":[[[16.41718,48.54521],[16.39184,48.55496],[16.3665,48.54521],[16.3665,48.52573],[16.39184,48.51598],[16.41718,48.52573],[16.41718,48.54521]]]}},{"type":"Feature","properties":{"pt":134,"pt_band":null,"car":42,"car_band":55},"geometry":{"type":"Polygon","coordinates":[[[16.46864,48.54521],[16.4433,48.55496],[16.41796,48.54521],[16.41796,48.52573],[16.4433,48.51598],[16.46864,48.52573],[16.46864,48.54521]]]}},{"type":"Feature","properties":{"pt":95,"pt_band":null,"car":37,"car_band":40},"geometry":{"type":"Polygon","coordinates":[[[16.5201,48.54521],[16.49476,48.55496],[16.46942,48.54521],[16.46942,48.52573],[16.49476,48.51598],[16.5201,48.52573],[16.5201,48.54521]]]}},{"type":"Feature","properties":{"pt":null,"pt_band":null,"car":34,"car_band":40},"geometry":{"type":"Polygon","coordinates":[[[16.57155,48.54521],[16.54621,48.55496],[16.52087,48.54521],[16.52087,48.52573],[16.54621,48.51598],[16.57155,48.52573],[16.57155,48.54521]]]}},{"type":"Feature","properties":{"pt":null,"pt_band":null,"car":31,"car_band":40},"geometry":{"type":"Polygon","coordinates":[[[16.62301,48.54521],[16.59767,48.55496],[16.57233,48.54521],[16.57233,48.52573],[16.59767,48.51598],[16.62301,48.52573],[16.62301,48.54521]]]}},{"type":"Feature","properties":{"pt":null,"pt_band":null,"car":52,"car_band":55},"geometry":{"type":"Polygon","coordinates":[[[16.67446,48.54521],[16.64912,48.55496],[16.62378,48.54521],[16.62378,48.52573],[16.64912,48.51598],[16.67446,48.52573],[16.67446,48.54521]]]}},{"type":"Feature","properties":{"pt":104,"pt_band":null,"car":50,"car_band":55},"geometry":{"type":"Polygon","coordinates":[[[15.92835,48.57488],[15.90301,48.58463],[15.87767,48.57488],[15.87767,48.5554],[15.90301,48.54565],[15.92835,48.5554],[15.92835,48.57488]]]}},{"type":"Feature","properties":{"pt":88,"pt_band":90,"car":44,"car_band":55},"geometry":{"type":"Polygon","coordinates":[[[16.03126,48.57488],[16.00592,48.58463],[15.98058,48.57488],[15.98058,48.5554],[16.00592,48.54565],[16.03126,48.5554],[16.03126,48.57488]]]}},{"type":"Feature","properties":{"pt":81,"pt_band":90,"car":41,"car_band":55},"geometry":{"type":"Polygon","coordinates":[[[16.08272,48.57488],[16.05738,48.58463],[16.03204,48.57488],[16.03204,48.5554],[16.05738,48.54565],[16.08272,48.5554],[16.08272,48.57488]]]}},{"type":"Feature","properties":{"pt":79,"pt_band":90,"car":45,"car_band":55},"geometry":{"type":"Polygon","coordinates":[[[16.13417,48.57488],[16.10883,48.58463],[16.08349,48.57488],[16.08349,48.5554],[16.10883,48.54565],[16.13417,48.5554],[16.13417,48.57488]]]}},{"type":"Feature","properties":{"pt":null,"pt_band":null,"car":49,"car_band":55},"geometry":{"type":"Polygon","coordinates":[[[16.28854,48.57488],[16.2632,48.58463],[16.23786,48.57488],[16.23786,48.5554],[16.2632,48.54565],[16.28854,48.5554],[16.28854,48.57488]]]}},{"type":"Feature","properties":{"pt":null,"pt_band":null,"car":50,"car_band":55},"geometry":{"type":"Polygon","coordinates":[[[16.34,48.57488],[16.31466,48.58463],[16.28932,48.57488],[16.28932,48.5554],[16.31466,48.54565],[16.34,48.5554],[16.34,48.57488]]]}},{"type":"Feature","properties":{"pt":119,"pt_band":null,"car":44,"car_band":55},"geometry":{"type":"Polygon","coordinates":[[[16.39146,48.57488],[16.36612,48.58463],[16.34078,48.57488],[16.34078,48.5554],[16.36612,48.54565],[16.39146,48.5554],[16.39146,48.57488]]]}},{"type":"Feature","properties":{"pt":null,"pt_band":null,"car":48,"car_band":55},"geometry":{"type":"Polygon","coordinates":[[[16.44291,48.57488],[16.41757,48.58463],[16.39223,48.57488],[16.39223,48.5554],[16.41757,48.54565],[16.44291,48.5554],[16.44291,48.57488]]]}},{"type":"Feature","properties":{"pt":null,"pt_band":null,"car":41,"car_band":55},"geometry":{"type":"Polygon","coordinates":[[[16.49437,48.57488],[16.46903,48.58463],[16.44369,48.57488],[16.44369,48.5554],[16.46903,48.54565],[16.49437,48.5554],[16.49437,48.57488]]]}},{"type":"Feature","properties":{"pt":101,"pt_band":null,"car":41,"car_band":55},"geometry":{"type":"Polygon","coordinates":[[[16.54582,48.57488],[16.52048,48.58463],[16.49514,48.57488],[16.49514,48.5554],[16.52048,48.54565],[16.54582,48.5554],[16.54582,48.57488]]]}},{"type":"Feature","properties":{"pt":93,"pt_band":null,"car":37,"car_band":40},"geometry":{"type":"Polygon","coordinates":[[[16.59728,48.57488],[16.57194,48.58463],[16.5466,48.57488],[16.5466,48.5554],[16.57194,48.54565],[16.59728,48.5554],[16.59728,48.57488]]]}},{"type":"Feature","properties":{"pt":111,"pt_band":null,"car":41,"car_band":55},"geometry":{"type":"Polygon","coordinates":[[[16.64874,48.57488],[16.6234,48.58463],[16.59806,48.57488],[16.59806,48.5554],[16.6234,48.54565],[16.64874,48.5554],[16.64874,48.57488]]]}},{"type":"Feature","properties":{"pt":97,"pt_band":null,"car":52,"car_band":55},"geometry":{"type":"Polygon","coordinates":[[[15.95408,48.60456],[15.92874,48.61431],[15.9034,48.60456],[15.9034,48.58508],[15.92874,48.57533],[15.95408,48.58508],[15.95408,48.60456]]]}},{"type":"Feature","properties":{"pt":106,"pt_band":null,"car":52,"car_band":55},"geometry":{"type":"Polygon","coordinates":[[[16.00553,48.60456],[15.98019,48.61431],[15.95485,48.60456],[15.95485,48.58508],[15.98019,48.57533],[16.00553,48.58508],[16.00553,48.60456]]]}},{"type":"Feature","properties":{"pt":null,"pt_band":null,"car":52,"car_band":55},"geometry":{"type":"Polygon","coordinates":[[[16.05699,48.60456],[16.03165,48.61431],[16.00631,48.60456],[16.00631,48.58508],[16.03165,48.57533],[16.05699,48.58508],[16.05699,48.60456]]]}},{"type":"Feature","properties":{"pt":null,"pt_band":null,"car":44,"car_band":55},"geometry":{"type":"Polygon","coordinates":[[[16.10845,48.60456],[16.08311,48.61431],[16.05777,48.60456],[16.05777,48.58508],[16.08311,48.57533],[16.10845,48.58508],[16.10845,48.60456]]]}},{"type":"Feature","properties":{"pt":102,"pt_band":null,"car":48,"car_band":55},"geometry":{"type":"Polygon","coordinates":[[[16.1599,48.60456],[16.13456,48.61431],[16.10922,48.60456],[16.10922,48.58508],[16.13456,48.57533],[16.1599,48.58508],[16.1599,48.60456]]]}},{"type":"Feature","properties":{"pt":101,"pt_band":null,"car":52,"car_band":55},"geometry":{"type":"Polygon","coordinates":[[[16.26281,48.60456],[16.23747,48.61431],[16.21213,48.60456],[16.21213,48.58508],[16.23747,48.57533],[16.26281,48.58508],[16.26281,48.60456]]]}},{"type":"Feature","properties":{"pt":null,"pt_band":null,"car":49,"car_band":55},"geometry":{"type":"Polygon","coordinates":[[[16.31427,48.60456],[16.28893,48.61431],[16.26359,48.60456],[16.26359,48.58508],[16.28893,48.57533],[16.31427,48.58508],[16.31427,48.60456]]]}},{"type":"Feature","properties":{"pt":null,"pt_band":null,"car":48,"car_band":55},"geometry":{"type":"Polygon","coordinates":[[[16.36573,48.60456],[16.34039,48.61431],[16.31505,48.60456],[16.31505,48.58508],[16.34039,48.57533],[16.36573,48.58508],[16.36573,48.60456]]]}},{"type":"Feature","properties":{"pt":118,"pt_band":null,"car":50,"car_band":55},"geometry":{"type":"Polygon","coordinates":[[[16.41718,48.60456],[16.39184,48.61431],[16.3665,48.60456],[16.3665,48.58508],[16.39184,48.57533],[16.41718,48.58508],[16.41718,48.60456]]]}},{"type":"Feature","properties":{"pt":99,"pt_band":null,"car":44,"car_band":55},"geometry":{"type":"Polygon","coordinates":[[[16.5201,48.60456],[16.49476,48.61431],[16.46942,48.60456],[16.46942,48.58508],[16.49476,48.57533],[16.5201,48.58508],[16.5201,48.60456]]]}},{"type":"Feature","properties":{"pt":119,"pt_band":null,"car":39,"car_band":40},"geometry":{"type":"Polygon","coordinates":[[[16.57155,48.60456],[16.54621,48.61431],[16.52087,48.60456],[16.52087,48.58508],[16.54621,48.57533],[16.57155,48.58508],[16.57155,48.60456]]]}},{"type":"Feature","properties":{"pt":104,"pt_band":null,"car":42,"car_band":55},"geometry":{"type":"Polygon","coordinates":[[[16.62301,48.60456],[16.59767,48.61431],[16.57233,48.60456],[16.57233,48.58508],[16.59767,48.57533],[16.62301,48.58508],[16.62301,48.60456]]]}},{"type":"Feature","properties":{"pt":114,"pt_band":null,"car":36,"car_band":40},"geometry":{"type":"Polygon","coordinates":[[[16.67446,48.60456],[16.64912,48.61431],[16.62378,48.60456],[16.62378,48.58508],[16.64912,48.57533],[16.67446,48.58508],[16.67446,48.60456]]]}},{"type":"Feature","properties":{"pt":null,"pt_band":null,"car":55,"car_band":55},"geometry":{"type":"Polygon","coordinates":[[[15.92835,48.63424],[15.90301,48.64399],[15.87767,48.63424],[15.87767,48.61476],[15.90301,48.60501],[15.92835,48.61476],[15.92835,48.63424]]]}},{"type":"Feature","properties":{"pt":138,"pt_band":null,"car":51,"car_band":55},"geometry":{"type":"Polygon","coordinates":[[[16.03126,48.63424],[16.00592,48.64399],[15.98058,48.63424],[15.98058,48.61476],[16.00592,48.60501],[16.03126,48.61476],[16.03126,48.63424]]]}},{"type":"Feature","properties":{"pt":87,"pt_band":90,"car":45,"car_band":55},"geometry":{"type":"Polygon","coordinates":[[[16.08272,48.63424],[16.05738,48.64399],[16.03204,48.63424],[16.03204,48.61476],[16.05738,48.60501],[16.08272,48.61476],[16.08272,48.63424]]]}},{"type":"Feature","properties":{"pt":86,"pt_band":90,"car":47,"car_band":55},"geometry":{"type":"Polygon","coordinates":[[[16.13417,48.63424],[16.10883,48.64399],[16.08349,48.63424],[16.08349,48.61476],[16.10883,48.60501],[16.13417,48.61476],[16.13417,48.63424]]]}},{"type":"Feature","properties":{"pt":97,"pt_band":null,"car":50,"car_band":55},"geometry":{"type":"Polygon","coordinates":[[[16.18563,48.63424],[16.16029,48.64399],[16.13495,48.63424],[16.13495,48.61476],[16.16029,48.60501],[16.18563,48.61476],[16.18563,48.63424]]]}},{"type":"Feature","properties":{"pt":null,"pt_band":null,"car":54,"car_band":55},"geometry":{"type":"Polygon","coordinates":[[[16.34,48.63424],[16.31466,48.64399],[16.28932,48.63424],[16.28932,48.61476],[16.31466,48.60501],[16.34,48.61476],[16.34,48.63424]]]}},{"type":"Feature","properties":{"pt":124,"pt_band":null,"car":54,"car_band":55},"geometry":{"type":"Polygon","coordinates":[[[16.39146,48.63424],[16.36612,48.64399],[16.34078,48.63424],[16.34078,48.61476],[16.36612,48.60501],[16.39146,48.61476],[16.39146,48.63424]]]}},{"type":"Feature","properties":{"pt":133,"pt_band":null,"car":55,"car_band":55},"geometry":{"type":"Polygon","coordinates":[[[16.49437,48.63424],[16.46903,48.64399],[16.44369,48.63424],[16.44369,48.61476],[16.46903,48.60501],[16.49437,48.61476],[16.49437,48.63424]]]}},{"type":"Feature","properties":{"pt":104,"pt_band":null,"car":44,"car_band":55},"geometry":{"type":"Polygon","coordinates":[[[16.54582,48.63424],[16.52048,48.64399],[16.49514,48.63424],[16.49514,48.61476],[16.52048,48.60501],[16.54582,48.61476],[16.54582,48.63424]]]}},{"type":"Feature","properties":{"pt":null,"pt_band":null,"car":46,"car_band":55},"geometry":{"type":"Polygon","coordinates":[[[16.59728,48.63424],[16.57194,48.64399],[16.5466,48.63424],[16.5466,48.61476],[16.57194,48.60501],[16.59728,48.61476],[16.59728,48.63424]]]}},{"type":"Feature","properties":{"pt":143,"pt_band":null,"car":51,"car_band":55},"geometry":{"type":"Polygon","coordinates":[[[16.64874,48.63424],[16.6234,48.64399],[16.59806,48.63424],[16.59806,48.61476],[16.6234,48.60501],[16.64874,48.61476],[16.64874,48.63424]]]}},{"type":"Feature","properties":{"pt":98,"pt_band":null,"car":48,"car_band":55},"geometry":{"type":"Polygon","coordinates":[[[16.05699,48.66391],[16.03165,48.67366],[16.00631,48.66391],[16.00631,48.64443],[16.03165,48.63468],[16.05699,48.64443],[16.05699,48.66391]]]}},{"type":"Feature","properties":{"pt":134,"pt_band":null,"car":52,"car_band":55},"geometry":{"type":"Polygon","coordinates":[[[16.10845,48.66391],[16.08311,48.67366],[16.05777,48.66391],[16.05777,48.64443],[16.08311,48.63468],[16.10845,48.64443],[16.10845,48.66391]]]}},{"type":"Feature","properties":{"pt":100,"pt_band":null,"car":51,"car_band":55},"geometry":{"type":"Polygon","coordinates":[[[16.1599,48.66391],[16.13456,48.67366],[16.10922,48.66391],[16.10922,48.64443],[16.13456,48.63468],[16.1599,48.64443],[16.1599,48.66391]]]}},{"type":"Feature","properties":{"pt":136,"pt_band":null,"car":42,"car_band":55},"geometry":{"type":"Polygon","coordinates":[[[16.67446,48.66391],[16.64912,48.67366],[16.62378,48.66391],[16.62378,48.64443],[16.64912,48.63468],[16.67446,48.64443],[16.67446,48.66391]]]}}]}